"id","name","name_ru","name_en","parent_name","fullname","parent"
"231","1 series","1 series","null","BMW","","11"
"190","10","10","null","Aro","","7"
"1318","10","10","null","Renault","","96"
"205","100","100","null","Audi","","10"
"1363","100","100","null","Rover","","99"
"948","1000","1000","null","Maruti","","74"
"1247","1007","1007","null","Peugeot","","91"
"2222","100D","100D","null","Mercedes-Benz ","","79"
"1115","100NX","100NX","null","Nissan","","85"
"1421","105, 120","105, 120","null","Skoda","","108"
"1248","106","106","null","Peugeot","","91"
"1249","107","107","null","Peugeot","","91"
"1319","11","11","null","Renault","","96"
"1734","1111","1111","null","ВАЗ","","132"
"1808","1111","1111","null","СеАЗ","","136"
"1809","1111","1111","null","КАМАЗ","","137"
"2230","111740","111740","null","ВАЗ","","132"
"2051","11193 (ВАЗ)","11193 (ВАЗ)","null","ВАЗ","","132"
"1821","114","114","null","ЗИЛ","","139"
"1822","115","115","null","ЗИЛ","","139"
"2181","116i","116i","null","BMW","","11"
"1823","117","117","null","ЗИЛ","","139"
"2187","118i","118i","null","BMW","","11"
"1767","12 / ЗИМ","12 / ЗИМ","null","ГАЗ","","134"
"969","121","121","null","Mazda","","77"
"572","124","124","null","Fiat","","39"
"573","126","126","null","Fiat","","39"
"574","127","127","null","Fiat","","39"
"1768","13","13","null","ГАЗ","","134"
"1824","130","130","null","ЗИЛ","","139"
"1835","1302","1302","null","ЛУАЗ","","141"
"425","1304","1304","null","Dacia","","25"
"1506","1307-1510","1307-1510","null","Talbot","","115"
"575","131","131","null","Fiat","","39"
"426","1310","1310","null","Dacia","","25"
"427","1325","1325","null","Dacia","","25"
"1769","14","14","null","ГАЗ","","134"
"1320","14","14","null","Renault","","96"
"1689","140","140","null","Volvo","","125"
"428","1410","1410","null","Dacia","","25"
"163","145","145","null","Alfa Romeo","","5"
"164","146","146","null","Alfa Romeo","","5"
"165","147","147","null","Alfa Romeo","","5"
"166","155","155","null","Alfa Romeo","","5"
"167","156","156","null","Alfa Romeo","","5"
"168","159","159","null","Alfa Romeo","","5"
"169","164","164","null","Alfa Romeo","","5"
"1690","164","164","null","Volvo","","125"
"170","166","166","null","Alfa Romeo","","5"
"1770","17310","17310","null","ГАЗ","","134"
"1321","18","18","null","Renault","","96"
"1116","180SX","180SX","null","Nissan","","85"
"1322","19","19","null","Renault","","96"
"1735","1922","1922","null","ВАЗ","","132"
"970","2","2","null","Mazda","","77"
"206","200","200","null","Audi","","10"
"1364","200","200","null","Rover","","99"
"1117","200SX","200SX","null","Nissan","","85"
"1250","204","204","null","Peugeot","","91"
"1251","205","205","null","Peugeot","","91"
"1252","206","206","null","Peugeot","","91"
"681","206","206","null","Geo","","43"
"1253","207","207","null","Peugeot","","91"
"544","208","208","null","Ferrari","","38"
"2305","208","208","","Peugeot","","91"
"1323","21","21","null","Renault","","96"
"1771","21","21","null","ГАЗ","","134"
"1736","2101","2101","null","ВАЗ","","132"
"2047","21011 ","21011 ","null","ВАЗ","","132"
"1737","2102","2102","null","ВАЗ","","132"
"1738","2103","2103","null","ВАЗ","","132"
"1739","2104","2104","null","ВАЗ","","132"
"2117","21043","21043","null","ВАЗ","","132"
"1740","2105","2105","null","ВАЗ","","132"
"2128","21053","21053","null","ВАЗ","","132"
"2185","210540","210540","null","ВАЗ","","132"
"1741","2106","2106","null","ВАЗ","","132"
"1955","21060","21060","null","ВАЗ","","132"
"1966","21063 ","21063 ","null","ВАЗ","","132"
"1742","2107","2107","null","ВАЗ","","132"
"1743","2108","2108","null","ВАЗ","","132"
"1744","2109","2109","null","ВАЗ","","132"
"1883","21093","21093","null","ВАЗ","","132"
"1745","21099","21099","null","ВАЗ","","132"
"1746","2110","2110","null","ВАЗ","","132"
"1747","2111","2111","null","ВАЗ","","132"
"1748","2112","2112","null","ВАЗ","","132"
"1749","2113","2113","null","ВАЗ","","132"
"1750","2114","2114","null","ВАЗ","","132"
"1988","21140","21140","null","ВАЗ","","132"
"1751","2115","2115","null","ВАЗ","","132"
"2126","21150","21150","null","ВАЗ","","132"
"1829","2117","2117","null","ИЖ","","140"
"1752","2120","2120","null","ВАЗ","","132"
"1753","2121","2121","null","ВАЗ","","132"
"2282","21213","21213","","ВАЗ","","132"
"2132","21214","21214","null","ВАЗ","","132"
"1754","2123","2123","null","ВАЗ","","132"
"1830","2125","2125","null","ИЖ","","140"
"1842","2125","2125","null","Москвич","","142"
"1831","2126 / Ода","2126 / Ода","null","ИЖ","","140"
"1755","2129","2129","null","ВАЗ","","132"
"1365","213","213","null","Rover","","99"
"1756","2131","2131","null","ВАЗ","","132"
"2229","2134","2134","null","Москвич","","142"
"1843","2135","2135","null","Москвич","","142"
"1844","2137","2137","null","Москвич","","142"
"1845","2138","2138","null","Москвич","","142"
"1846","2140","2140","null","Москвич","","142"
"1847","2141","2141","null","Москвич","","142"
"2264","21412","21412","null","Москвич","","142"
"2144","21Р","21Р","null","ГАЗ","","134"
"1772","22","22","null","ГАЗ","","134"
"1862","2206","2206","null","УАЗ","","143"
"1949","220606 ","220606 ","null","УАЗ","","143"
"2283","22069","22069","","УАЗ","","143"
"1773","2217","2217","null","ГАЗ","","134"
"1774","22171","22171","null","ГАЗ","","134"
"954","228","228","null","Maserati","","75"
"1775","2308","2308","null","ГАЗ","","134"
"1889","230GE","230GE","null","PUCH","","88"
"1776","2310","2310","null","ГАЗ","","134"
"1757","2328","2328","null","ВАЗ","","132"
"1758","2329","2329","null","ВАЗ","","132"
"1777","2330","2330","null","ГАЗ","","134"
"1970","233001 ","233001 ","null","ГАЗ","","134"
"1759","2345","2345","null","ВАЗ","","132"
"1760","2346","2346","null","ВАЗ","","132"
"1761","2347","2347","null","ВАЗ","","132"
"1958","23602","23602","null","УАЗ","","143"
"1863","2362","2362","null","УАЗ","","143"
"1892","23632","23632","null","УАЗ","","143"
"1762","2364","2364","null","ВАЗ","","132"
"1778","24","24","null","ГАЗ","","134"
"191","24","24","null","Aro","","7"
"1779","24-10","24-10","null","ГАЗ","","134"
"1691","240","240","null","Volvo","","125"
"1780","2402","2402","null","ГАЗ","","134"
"1118","240SX","240SX","null","Nissan","","85"
"576","242","242","null","Fiat","","39"
"192","243","243","null","Aro","","7"
"193","244","244","null","Aro","","7"
"194","245","245","null","Aro","","7"
"195","246","246","null","Aro","","7"
"1366","25","25","null","Rover","","99"
"1324","25","25","null","Renault","","96"
"1692","260","260","null","Volvo","","125"
"1367","2600","2600","null","Rover","","99"
"1781","2705","2705","null","ГАЗ","","134"
"1832","2715","2715","null","ИЖ","","140"
"1833","2717","2717","null","ИЖ","","140"
"1763","2723","2723","null","ВАЗ","","132"
"1782","2752","2752","null","ГАЗ","","134"
"1119","280ZX","280ZX","null","Nissan","","85"
"1848","2901","2901","null","Москвич","","142"
"2094","2DX","2DX","null","","","3"
"971","3","3","null","Mazda","","77"
"232","3 series","3 series","null","BMW","","11"
"1325","30","30","null","Renault","","96"
"1648","300","300","null","Venturi","","123"
"1051","3000 GT","3000 GT","null","Mitsubishi","","82"
"372","300C","300C","null","Chrysler","","22"
"373","300M","300M","null","Chrysler","","22"
"1120","300ZX","300ZX","null","Nissan","","85"
"1254","305","305","null","Peugeot","","91"
"1255","306","306","null","Peugeot","","91"
"1256","307","307","null","Peugeot","","91"
"1257","308","308","null","Peugeot","","91"
"545","308","308","null","Ferrari","","38"
"1783","3102","3102","null","ГАЗ","","134"
"1948","310290","310290","null","ГАЗ","","134"
"1784","3103","3103","null","ГАЗ","","134"
"1785","3104","3104","null","ГАЗ","","134"
"1786","3105","3105","null","ГАЗ","","134"
"1787","3106","3106","null","ГАЗ","","134"
"1788","3110","3110","null","ГАЗ","","134"
"1789","31105","31105","null","ГАЗ","","134"
"1790","3111","3111","null","ГАЗ","","134"
"1791","3120","3120","null","ГАЗ","","134"
"1792","3129","3129","null","ГАЗ","","134"
"1313","315","315","null","Proton","","95"
"1864","3150","3150","null","УАЗ","","143"
"1865","3151","3151","null","УАЗ","","143"
"1866","31512","31512","null","УАЗ","","143"
"1867","31514","31514","null","УАЗ","","143"
"1969","315148 ","315148 ","null","УАЗ","","143"
"1868","31519","31519","null","УАЗ","","143"
"1870","3153","3153","null","УАЗ","","143"
"1871","3159","3159","null","УАЗ","","143"
"2236","316","316","null","BMW","","11"
"1872","3160","3160","null","УАЗ","","143"
"1873","3162","3162","null","УАЗ","","143"
"1875","3165","3165","null","УАЗ","","143"
"2278","320","320","","BMW","","11"
"955","3200 GT","3200 GT","null","Maserati","","75"
"1793","3221","3221","null","ГАЗ","","134"
"972","323","323","null","Mazda","","77"
"1794","3234","3234","null","ГАЗ","","134"
"2141","325i Xdrive","325i Xdrive","null","BMW","","11"
"546","328","328","null","Ferrari","","38"
"2242","328","328","null","BMW","","11"
"171","33","33","null","Alfa Romeo","","5"
"1795","3302","3302","null","ГАЗ","","134"
"2154","33021","33021","null","ГАЗ","","134"
"1876","3303","3303","null","УАЗ","","143"
"1796","3307","3307","null","ГАЗ","","134"
"1797","3308","3308","null","ГАЗ","","134"
"1798","3309","3309","null","ГАЗ","","134"
"1877","3309","3309","null","УАЗ","","143"
"1799","3310","3310","null","ГАЗ","","134"
"2275","335 I","335 I","","BMW","","11"
"1693","340","340","null","Volvo","","125"
"547","348","348","null","Ferrari","","38"
"1121","350Z","350Z","null","Nissan","","85"
"1723","353","353","null","Wartburg","","127"
"548","355 Berlinetta","355 Berlinetta","null","Ferrari","","38"
"549","355F1","355F1","null","Ferrari","","38"
"1694","360","360","null","Volvo","","125"
"550","360 Modena","360 Modena","null","Ferrari","","38"
"551","360 Spider","360 Spider","null","Ferrari","","38"
"552","365","365","null","Ferrari","","38"
"1878","3741","3741","null","УАЗ","","143"
"1879","3909","3909","null","УАЗ","","143"
"1984","390902","390902","null","УАЗ","","143"
"2178","390944","390944","null","УАЗ","","143"
"2134","390945","390945","null","УАЗ","","143"
"2129","39099","39099","null","УАЗ","","143"
"1891","390995","390995","null","УАЗ","","143"
"1880","3962","3962","null","УАЗ","","143"
"1326","4","4","null","Renault","","96"
"1521","4 Runner","4 Runner","null","Toyota","","121"
"1111","4/4","4/4","null","Morgan","","84"
"1368","400","400","null","Rover","","99"
"1649","400","400","null","Venturi","","123"
"1849","400","400","null","Москвич","","142"
"1258","4007","4007","null","Peugeot","","91"
"1998","4008","4008","null","Peugeot","","91"
"1850","401","401","null","Москвич","","142"
"1851","402","402","null","Москвич","","142"
"1852","403","403","null","Москвич","","142"
"2292","403","403","","Peugeot","","91"
"1259","405","405","null","Peugeot","","91"
"1260","406","406","null","Peugeot","","91"
"1261","407","407","null","Peugeot","","91"
"1853","407","407","null","Москвич","","142"
"1854","408","408","null","Москвич","","142"
"2289","408","408","","Peugeot","","91"
"1855","410","410","null","Москвич","","142"
"1825","4104","4104","null","ЗИЛ","","139"
"1826","41047","41047","null","ЗИЛ","","139"
"1834","412","412","null","ИЖ","","140"
"1856","412","412","null","Москвич","","142"
"553","412","412","null","Ferrari","","38"
"1314","415","415","null","Proton","","95"
"830","420","420","null","Jaguar","","58"
"2281","420","420","","BMW","","11"
"1857","426","426","null","Москвич","","142"
"1858","427","427","null","Москвич","","142"
"1810","43","43","null","КАМАЗ","","137"
"956","4300 GT Coupe","4300 GT Coupe","null","Maserati","","75"
"1695","440","440","null","Volvo","","125"
"1369","45","45","null","Rover","","99"
"554","456 GT","456 GT","null","Ferrari","","38"
"2175","458 Spider","458 Spider","null","Ferrari","","38"
"1881","459","459","null","УАЗ","","143"
"1696","460","460","null","Volvo","","125"
"1882","469","469","null","УАЗ","","143"
"1827","4741","4741","null","ЗИЛ","","139"
"1697","480","480","null","Volvo","","125"
"1327","5","5","null","Renault","","96"
"973","5","5","null","Mazda","","77"
"233","5 series","5 series","null","BMW","","11"
"577","500","500","null","Fiat","","39"
"207","5000","5000","null","Audi","","10"
"1262","504","504","null","Peugeot","","91"
"1263","505","505","null","Peugeot","","91"
"555","512 M","512 M","null","Ferrari","","38"
"1800","52/53","52/53","null","ГАЗ","","134"
"2201","520","520","null","BMW","","11"
"2295","525","525","","BMW","","11"
"2196","525TD","525TD","null","BMW","","11"
"1811","53","53","null","КАМАЗ","","137"
"1992","530","530","null","BMW","","11"
"1828","5301","5301","null","ЗИЛ","","139"
"2296","535","535","","BMW","","11"
"1812","54","54","null","КАМАЗ","","137"
"2186","545","545","null","BMW","","11"
"1813","55","55","null","КАМАЗ","","137"
"556","550 Barchetta","550 Barchetta","null","Ferrari","","38"
"557","550 Maranello","550 Maranello","null","Ferrari","","38"
"2006","550i","550i","null","BMW","","11"
"965","57","57","null","Maybach","","76"
"558","575 Maranello","575 Maranello","null","Ferrari","","38"
"966","57S","57S","null","Maybach","","76"
"559","599 GTB","599 GTB","null","Ferrari","","38"
"974","6","6","null","Mazda","","77"
"234","6 series","6 series","null","BMW","","11"
"507","600","600","null","Dodge","","31"
"578","600","600","null","Fiat","","39"
"1370","600","600","null","Rover","","99"
"1646","600","600","null","Trabant","","122"
"1647","601","601","null","Trabant","","122"
"1264","604","604","null","Peugeot","","91"
"1265","605","605","null","Peugeot","","91"
"1266","607","607","null","Peugeot","","91"
"1267","608","608","null","Peugeot","","91"
"560","612 Scaglietti","612 Scaglietti","null","Ferrari","","38"
"1510","613","613","null","Tatra","","117"
"967","62","62","null","Maybach","","76"
"975","626","626","null","Mazda","","77"
"968","62S","62S","null","Maybach","","76"
"2215","645","645","null","BMW","","11"
"1814","65","65","null","КАМАЗ","","137"
"2167","650i","650i","null","BMW","","11"
"1801","66","66","null","ГАЗ","","134"
"1802","67","67","null","ГАЗ","","134"
"1803","69","69","null","ГАЗ","","134"
"930","7","7","null","MG","","70"
"1886","7 HC TRANSPORTER","7 HC TRANSPORTER","null","Volkswagen","","124"
"235","7 series","7 series","null","BMW","","11"
"1511","700","700","null","Tatra","","117"
"1959","730","730","null","BMW","","11"
"1980","735 LI","735 LI","null","BMW","","11"
"1698","740","740","null","Volvo","","125"
"1989","740i","740i","null","BMW","","11"
"1699","744","744","null","Volvo","","125"
"1700","745","745","null","Volvo","","125"
"2146","745","745","null","BMW","","11"
"1993","745 Li","745 Li","null","BMW","","11"
"1371","75","75","null","Rover","","99"
"172","75","75","null","Alfa Romeo","","5"
"1987","750","750","null","BMW","","11"
"1357","750","750","null","Roewe","","97"
"1701","760","760","null","Volvo","","125"
"1807","762","762","null","ЕРАЗ","","135"
"1702","780","780","null","Volvo","","125"
"1328","8","8","null","Renault","","96"
"236","8 series","8 series","null","BMW","","11"
"208","80","80","null","Audi","","10"
"949","800","800","null","Maruti","","74"
"1372","800","800","null","Rover","","99"
"1268","806","806","null","Peugeot","","91"
"1269","807","807","null","Peugeot","","91"
"1512","815","815","null","Tatra","","117"
"1703","850","850","null","Volvo","","125"
"2197","850","850","null","BMW","","11"
"579","850","850","null","Fiat","","39"
"173","8C Competizione","8C Competizione","null","Alfa Romeo","","5"
"1329","9","9","null","Renault","","96"
"1391","9-2","9-2","null","Saab","","101"
"1392","9-3","9-3","null","Saab","","101"
"1393","9-5","9-5","null","Saab","","101"
"1394","9-7X","9-7X","null","Saab","","101"
"174","90","90","null","Alfa Romeo","","5"
"209","90","90","null","Audi","","10"
"1395","900","900","null","Saab","","101"
"1396","900 II","900 II","null","Saab","","101"
"1397","9000","9000","null","Saab","","101"
"1302","911","911","null","Porsche","","94"
"2039","911 Coupe","911 Coupe","null","Porsche","","94"
"1303","924","924","null","Porsche","","94"
"1304","928","928","null","Porsche","","94"
"976","929","929","null","Mazda","","77"
"1704","940","940","null","Volvo","","125"
"1705","944","944","null","Volvo","","125"
"1305","944","944","null","Porsche","","94"
"1706","945","945","null","Volvo","","125"
"1707","960","960","null","Volvo","","125"
"1815","965","965","null","ЗАЗ","","138"
"1816","966","966","null","ЗАЗ","","138"
"1836","967","967","null","ЛУАЗ","","141"
"1837","967М","967М","null","ЛУАЗ","","141"
"1817","968","968","null","ЗАЗ","","138"
"1306","968","968","null","Porsche","","94"
"1818","968М","968М","null","ЗАЗ","","138"
"1838","969","969","null","ЛУАЗ","","141"
"1839","969А","969А","null","ЛУАЗ","","141"
"1840","969Б","969Б","null","ЛУАЗ","","141"
"1841","969М","969М","null","ЛУАЗ","","141"
"1307","996","996","null","Porsche","","94"
"1308","997","997","null","Porsche","","94"
"1014","A-класс","A-класс","null","Mercedes-Benz","","79"
"2286","A1","A1","","Audi","","10"
"210","A2","A2","null","Audi","","10"
"2265","A21","A21","null","Chery","","20"
"211","A3","A3","null","Audi","","10"
"212","A4","A4","null","Audi","","10"
"213","A5","A5","null","Audi","","10"
"214","A6","A6","null","Audi","","10"
"215","A6 allroad quattro","A6 allroad quattro","null","Audi","","10"
"2277","A7","A7","","Audi","","10"
"216","A8","A8","null","Audi","","10"
"1900","A8L","A8L","null","Audi","","10"
"2","AC","AC","null","","","null"
"667","Acadia","Acadia","null","GMC","","41"
"760","Accent","Accent","null","Hyundai","","52"
"1274","Acclaim","Acclaim","null","Plymouth","","92"
"704","Accord","Accord","null","Honda","","49"
"145","Ace","Ace","null","AC","","2"
"146","Aceca","Aceca","null","AC","","2"
"1198","Achieva","Achieva","null","Oldsmobile","","86"
"2130","Actros","Actros","null","Mercedes-Benz","","79"
"1438","Actyon","Actyon","null","SsangYong","","111"
"1439","Actyon Sport","Actyon Sport","null","SsangYong","","111"
"3","Acura","Acura","null","","","null"
"1122","AD","AD","null","Nissan","","85"
"1213","Admiral","Admiral","null","Opel","","87"
"4","Admiral","Admiral","null","","","null"
"537","Admiral","Admiral","null","FAW","","35"
"1514","Admiral","Admiral","null","Tianye","","119"
"1470","Aerio","Aerio","null","Suzuki","","113"
"1112","Aero 8","Aero 8","null","Morgan","","84"
"613","Aerostar","Aerostar","null","Ford","","40"
"1214","Agila","Agila","null","Opel","","87"
"1052","Airtrek","Airtrek","null","Mitsubishi","","82"
"705","Airwave","Airwave","null","Honda","","49"
"580","Albea","Albea","null","Fiat","","39"
"1199","Alero","Alero","null","Oldsmobile","","86"
"309","Alero","Alero","null","Chevrolet","","21"
"5","Alfa Romeo","Alfa Romeo","null","","","null"
"175","Alfasud","Alfasud","null","Alfa Romeo","","5"
"176","Alfetta","Alfetta","null","Alfa Romeo","","5"
"1379","Alhambra","Alhambra","null","SEAT","","100"
"977","Allegro","Allegro","null","Mazda","","77"
"1522","Allex","Allex","null","Toyota","","121"
"1523","Allion","Allion","null","Toyota","","121"
"1123","Almera","Almera","null","Nissan","","85"
"1124","Almera Classic","Almera Classic","null","Nissan","","85"
"1125","Almera Tino","Almera Tino","null","Nissan","","85"
"1524","Alphard","Alphard","null","Toyota","","121"
"6","Alpina","Alpina","null","","","null"
"1380","Altea","Altea","null","SEAT","","100"
"686","Alter","Alter","null","Gonow","","45"
"1525","Altezza","Altezza","null","Toyota","","121"
"1126","Altima","Altima","null","Nissan","","85"
"462","Altis","Altis","null","Daihatsu","","27"
"1471","Alto","Alto","null","Suzuki","","113"
"2308","Amarok","Amarok","","Volkswagen","","124"
"1976","AMG SLS ","AMG SLS ","null","Mercedes-Benz","","79"
"813","Amigo","Amigo","null","Isuzu","","56"
"298","Amulet","Amulet","null","Chery","","20"
"1215","Antara","Antara","null","Opel","","87"
"753","Antelope","Antelope","null","Huanghai","","50"
"499","Antelope","Antelope","null","Derways","","30"
"463","Applause","Applause","null","Daihatsu","","27"
"431","Arcadia","Arcadia","null","Daewoo","","26"
"1216","Arena","Arena","null","Opel","","87"
"1526","Aristo","Aristo","null","Toyota","","121"
"1127","Armada","Armada","null","Nissan","","85"
"942","Armada","Armada","null","Mahindra","","72"
"253","Arnage","Arnage","null","Bentley","","13"
"7","Aro","Aro","null","","","null"
"1381","Arosa","Arosa","null","SEAT","","100"
"814","Ascender","Ascender","null","Isuzu","","56"
"1217","Ascona","Ascona","null","Opel","","87"
"706","Ascot","Ascot","null","Honda","","49"
"8","Asia","Asia","null","","","null"
"815","Aska","Aska","null","Isuzu","","56"
"374","Aspen","Aspen","null","Chrysler","","22"
"614","Aspire","Aspire","null","Ford","","40"
"1053","Aspire","Aspire","null","Mitsubishi","","82"
"530","Assol","Assol","null","Doninvest","","32"
"9","Aston Martin","Aston Martin","null","","","null"
"1402","Astra","Astra","null","Saturn","","104"
"1218","Astra","Astra","null","Opel","","87"
"310","Astro","Astro","null","Chevrolet","","21"
"2279","ASX","ASX","","Mitsubishi","","82"
"978","Atenza","Atenza","null","Mazda","","77"
"761","Atos","Atos","null","Hyundai","","52"
"464","Atrai","Atrai","null","Daihatsu","","27"
"10","Audi","Audi","null","","","null"
"1403","Aura","Aura","null","Saturn","","104"
"1527","Aurion","Aurion","null","Toyota","","121"
"1528","Auris","Auris","null","Toyota","","121"
"500","Aurora","Aurora","null","Derways","","30"
"1200","Aurora","Aurora","null","Oldsmobile","","86"
"311","Avalanche","Avalanche","null","Chevrolet","","21"
"1529","Avalon","Avalon","null","Toyota","","121"
"707","Avancier","Avancier","null","Honda","","49"
"762","Avante","Avante","null","Hyundai","","52"
"1330","Avantime","Avantime","null","Renault","","96"
"850","Avella","Avella","null","Kia","","61"
"508","Avenger","Avenger","null","Dodge","","31"
"1128","Avenir","Avenir","null","Nissan","","85"
"1530","Avensis","Avensis","null","Toyota","","121"
"1531","Avensis Verso","Avensis Verso","null","Toyota","","121"
"312","Aveo","Aveo","null","Chevrolet","","21"
"915","Aviator","Aviator","null","Lincoln","","68"
"395","AX","AX","null","Citroen","","23"
"816","Axiom","Axiom","null","Isuzu","","56"
"1532","Aygo","Aygo","null","Toyota","","121"
"979","Az-wagon","Az-wagon","null","Mazda","","77"
"763","Azera","Azera","null","Hyundai","","52"
"1281","Aztec","Aztec","null","Pontiac","","93"
"254","Azure","Azure","null","Bentley","","13"
"980","B-Series","B-Series","null","Mazda","","77"
"1015","B-класс","B-класс","null","Mercedes-Benz","","79"
"183","B10","B10","null","Alpina","","6"
"299","B11 (Oriental Son)","B11 (Oriental Son)","null","Chery","","20"
"184","B12","B12","null","Alpina","","6"
"300","B14","B14","null","Chery","","20"
"185","B3","B3","null","Alpina","","6"
"186","B7","B7","null","Alpina","","6"
"187","B8","B8","null","Alpina","","6"
"1449","Baja","Baja","null","Subaru","","112"
"1472","Baleno","Baleno","null","Suzuki","","113"
"1533","Bandeirante","Bandeirante","null","Toyota","","121"
"1515","Banner","Banner","null","Tianye","","119"
"829","Baodian","Baodian","null","JMC","","57"
"581","Barchetta","Barchetta","null","Fiat","","39"
"1129","Bassara","Bassara","null","Nissan","","85"
"1644","bB","bB","null","Toyota","","121"
"465","Be-go","Be-go","null","Daihatsu","","27"
"1651","Beetle","Beetle","null","Volkswagen","","124"
"1945","Bel Air","Bel Air","null","Chevrolet","","21"
"13","Bentley","Bentley","null","","","null"
"313","Beretta","Beretta","null","Chevrolet","","21"
"397","Berlingo","Berlingo","null","Citroen","","23"
"851","Besta","Besta","null","Kia","","61"
"538","Besturn","Besturn","null","FAW","","35"
"817","Bighorn","Bighorn","null","Isuzu","","56"
"916","Blackwood","Blackwood","null","Lincoln","","68"
"314","Blazer","Blazer","null","Chevrolet","","21"
"282","BLS","BLS","null","Cadillac","","17"
"1130","Bluebird","Bluebird","null","Nissan","","85"
"1131","Bluebird Sylphy","Bluebird Sylphy","null","Nissan","","85"
"11","BMW","BMW","null","","","null"
"2271","Bombardier","Bombardier","null","","","null"
"982","Bongo-Friendee","Bongo-Friendee","null","Mazda","","77"
"1282","Bonneville","Bonneville","null","Pontiac","","93"
"466","Boon","Boon","null","Daihatsu","","27"
"1652","Bora","Bora","null","Volkswagen","","124"
"1270","Boxer","Boxer","null","Peugeot","","91"
"1309","Boxster","Boxster","null","Porsche","","94"
"582","Brava","Brava","null","Fiat","","39"
"1201","Bravada","Bravada","null","Oldsmobile","","86"
"1054","Bravo","Bravo","null","Mitsubishi","","82"
"583","Bravo","Bravo","null","Fiat","","39"
"914","Breez","Breez","null","Lifan","","67"
"1275","Breeze","Breeze","null","Plymouth","","92"
"177","Brera","Brera","null","Alfa Romeo","","5"
"1534","Brevis","Brevis","null","Toyota","","121"
"14","Brilliance","Brilliance","null","","","null"
"698","Brio","Brio","null","Hafei","","47"
"615","Bronco","Bronco","null","Ford","","40"
"255","Brooklands","Brooklands","null","Bentley","","13"
"432","Brougham","Brougham","null","Daewoo","","26"
"981","BT-50","BT-50","null","Mazda","","77"
"15","Bugatti","Bugatti","null","","","null"
"16","Buick","Buick","null","","","null"
"396","BX","BX","null","Citroen","","23"
"12","BYD","BYD","null","","","null"
"398","C-Crosser","C-Crosser","null","Citroen","","23"
"616","C-Max","C-Max","null","Ford","","40"
"399","C-Triomphe","C-Triomphe","null","Citroen","","23"
"1016","C-класс","C-класс","null","Mercedes-Benz","","79"
"400","C1","C1","null","Citroen","","23"
"401","C15","C15","null","Citroen","","23"
"402","C2","C2","null","Citroen","","23"
"294","C21","C21","null","Caterham","","18"
"403","C3","C3","null","Citroen","","23"
"404","C3 Pluriel","C3 Pluriel","null","Citroen","","23"
"1708","C30","C30","null","Volvo","","125"
"405","C4","C4","null","Citroen","","23"
"406","C4 Picasso","C4 Picasso","null","Citroen","","23"
"407","C5","C5","null","Citroen","","23"
"408","C6","C6","null","Citroen","","23"
"1709","C70","C70","null","Volvo","","125"
"409","C8","C8","null","Citroen","","23"
"1437","C8","C8","null","Spyker","","110"
"217","Cabriolet","Cabriolet","null","Audi","","10"
"1653","Caddy","Caddy","null","Volkswagen","","124"
"17","Cadillac","Cadillac","null","","","null"
"1535","Caldina","Caldina","null","Toyota","","121"
"509","Caliber","Caliber","null","Dodge","","31"
"1219","Calibra","Calibra","null","Opel","","87"
"1654","California","California","null","Volkswagen","","124"
"315","Camaro","Camaro","null","Chevrolet","","21"
"1536","Cami","Cami","null","Toyota","","121"
"1655","Camper","Camper","null","Volkswagen","","124"
"1220","Campo","Campo","null","Opel","","87"
"1537","Camry","Camry","null","Toyota","","121"
"1538","Camry Solara","Camry Solara","null","Toyota","","121"
"668","Canyon","Canyon","null","GMC","","41"
"710","Capa","Capa","null","Honda","","49"
"985","Capella","Capella","null","Mazda","","77"
"1473","Cappuccino","Cappuccino","null","Suzuki","","113"
"617","Capri","Capri","null","Ford","","40"
"316","Caprice","Caprice","null","Chevrolet","","21"
"701","Caprice","Caprice","null","Holden","","48"
"317","Captiva","Captiva","null","Chevrolet","","21"
"510","Caravan","Caravan","null","Dodge","","31"
"1132","Caravan","Caravan","null","Nissan","","85"
"1656","Caravelle","Caravelle","null","Volkswagen","","124"
"852","Carens","Carens","null","Kia","","61"
"1539","Carina","Carina","null","Toyota","","121"
"1540","Carina E","Carina E","null","Toyota","","121"
"1541","Carina ED","Carina ED","null","Toyota","","121"
"1055","Carisma","Carisma","null","Mitsubishi","","82"
"853","Carnival","Carnival","null","Kia","","61"
"986","Carol","Carol","null","Mazda","","77"
"1310","Carrera GT","Carrera GT","null","Porsche","","94"
"284","Catera","Catera","null","Cadillac","","17"
"18","Caterham","Caterham","null","","","null"
"318","Cavalier","Cavalier","null","Chevrolet","","21"
"1542","Cavalier","Cavalier","null","Toyota","","121"
"1311","Cayenne","Cayenne","null","Porsche","","94"
"1312","Cayman","Cayman","null","Porsche","","94"
"2216","Cayman S","Cayman S","null","Porsche","","94"
"1133","Cedric","Cedric","null","Nissan","","85"
"854","Ceed","Ceed","null","Kia","","61"
"1134","Cefiro","Cefiro","null","Nissan","","85"
"1543","Celica","Celica","null","Toyota","","121"
"1544","Celsior","Celsior","null","Toyota","","121"
"319","Celta","Celta","null","Chevrolet","","21"
"764","Centennial","Centennial","null","Hyundai","","52"
"267","Century","Century","null","Buick","","16"
"1513","Century","Century","null","Tianma","","118"
"1545","Century","Century","null","Toyota","","121"
"855","Cerato","Cerato","null","Kia","","61"
"1500","Cerbera","Cerbera","null","TVR","","114"
"1440","Chairman","Chairman","null","SsangYong","","111"
"433","Chairman","Chairman","null","Daewoo","","26"
"1056","Challenger","Challenger","null","Mitsubishi","","82"
"2301","Chance","Chance","","ЗАЗ","","138"
"19","ChangFeng","ChangFeng","null","","","null"
"467","Charade","Charade","null","Daihatsu","","27"
"511","Charger","Charger","null","Dodge","","31"
"1057","Chariot","Chariot","null","Mitsubishi","","82"
"1546","Chaser","Chaser","null","Toyota","","121"
"842","Cherokee","Cherokee","null","Jeep","","59"
"1135","Cherry","Cherry","null","Nissan","","85"
"20","Chery","Chery","null","","","null"
"320","Chevi C2","Chevi C2","null","Chevrolet","","21"
"21","Chevrolet","Chevrolet","null","","","null"
"1501","Chimaera","Chimaera","null","TVR","","114"
"22","Chrysler","Chrysler","null","","","null"
"1136","Cima","Cima","null","Nissan","","85"
"584","Cinquecento","Cinquecento","null","Fiat","","39"
"375","Cirrus","Cirrus","null","Chrysler","","22"
"23","Citroen","Citroen","null","","","null"
"1373","City","City","null","Rover","","99"
"1433","City","City","null","Smart","","109"
"711","City","City","null","Honda","","49"
"422","City Leading","City Leading","null","DADI","","24"
"712","Civic","Civic","null","Honda","","49"
"1137","Civilian","Civilian","null","Nissan","","85"
"943","CJ","CJ","null","Mahindra","","72"
"149","CL","CL","null","Acura","","3"
"1017","CL-класс","CL-класс","null","Mercedes-Benz","","79"
"856","Clarus","Clarus","null","Kia","","61"
"321","Classic","Classic","null","Chevrolet","","21"
"1018","CLC-класс","CLC-класс","null","Mercedes-Benz","","79"
"1331","Clio","Clio","null","Renault","","96"
"1019","CLK-класс","CLK-класс","null","Mercedes-Benz","","79"
"1020","CLS-класс","CLS-класс","null","Mercedes-Benz","","79"
"939","Clubman","Clubman","null","MINI","","71"
"1547","Coaster","Coaster","null","Toyota","","121"
"322","Cobalt","Cobalt","null","Chevrolet","","21"
"147","Cobra","Cobra","null","AC","","2"
"323","Colorado","Colorado","null","Chevrolet","","21"
"1058","Colt","Colt","null","Mitsubishi","","82"
"1221","Combo","Combo","null","Opel","","87"
"843","Commander","Commander","null","Jeep","","59"
"944","Commander","Commander","null","Mahindra","","72"
"702","Commodore","Commodore","null","Holden","","48"
"844","Compass","Compass","null","Jeep","","59"
"713","Concerto","Concerto","null","Honda","","49"
"376","Concorde","Concorde","null","Chrysler","","22"
"618","Consul","Consul","null","Ford","","40"
"917","Continental","Continental","null","Lincoln","","68"
"256","Continental","Continental","null","Bentley","","13"
"257","Continental Flying Spur","Continental Flying Spur","null","Bentley","","13"
"258","Continental GT","Continental GT","null","Bentley","","13"
"619","Contour","Contour","null","Ford","","40"
"324","Conversion Van","Conversion Van","null","Chevrolet","","21"
"468","Coo","Coo","null","Daihatsu","","27"
"940","Cooper","Cooper","null","MINI","","71"
"469","Copen","Copen","null","Daihatsu","","27"
"1382","Cordoba","Cordoba","null","SEAT","","100"
"1358","Corniche","Corniche","null","Rolls-Royce","","98"
"1548","Corolla","Corolla","null","Toyota","","121"
"1549","Corolla Ceres","Corolla Ceres","null","Toyota","","121"
"1550","Corolla Fielder","Corolla Fielder","null","Toyota","","121"
"1551","Corolla Levin","Corolla Levin","null","Toyota","","121"
"1552","Corolla Runx","Corolla Runx","null","Toyota","","121"
"1553","Corolla Spacio","Corolla Spacio","null","Toyota","","121"
"1554","Corolla Verso","Corolla Verso","null","Toyota","","121"
"1555","Corona","Corona","null","Toyota","","121"
"1556","Corona Premio","Corona Premio","null","Toyota","","121"
"1657","Corrado","Corrado","null","Volkswagen","","124"
"1557","Corsa","Corsa","null","Toyota","","121"
"325","Corsa","Corsa","null","Chevrolet","","21"
"1222","Corsa","Corsa","null","Opel","","87"
"326","Corsica","Corsica","null","Chevrolet","","21"
"327","Corvette","Corvette","null","Chevrolet","","21"
"857","Cosmos","Cosmos","null","Kia","","61"
"1040","Cougar","Cougar","null","Mercury","","80"
"620","Cougar","Cougar","null","Ford","","40"
"880","Countach","Countach","null","Lamborghini","","62"
"1658","Country Buggy","Country Buggy","null","Volkswagen","","124"
"765","Coupe","Coupe","null","Hyundai","","52"
"957","Coupe","Coupe","null","Maserati","","75"
"585","Coupe","Coupe","null","Fiat","","39"
"621","Courier","Courier","null","Ford","","40"
"501","Cowboy","Cowboy","null","Derways","","30"
"708","CR-V","CR-V","null","Honda","","49"
"1659","Crafter","Crafter","null","Volkswagen","","124"
"1558","Cressida","Cressida","null","Toyota","","121"
"1559","Cresta","Cresta","null","Toyota","","121"
"2304","Creta","Creta","","Hyundai","","52"
"1138","Crew","Crew","null","Nissan","","85"
"586","Croma","Croma","null","Fiat","","39"
"377","Crossfire","Crossfire","null","Chrysler","","22"
"2310","Crosstour","Crosstour","","Honda","","49"
"818","Crosswind","Crosswind","null","Isuzu","","56"
"1924","CrowLine","CrowLine","null","","","null"
"1560","Crown","Crown","null","Toyota","","121"
"1561","Crown Athlete","Crown Athlete","null","Toyota","","121"
"1562","Crown Majesta","Crown Majesta","null","Toyota","","121"
"1563","Crown Royal","Crown Royal","null","Toyota","","121"
"622","Crown Victoria","Crown Victoria","null","Ford","","40"
"328","Cruze","Cruze","null","Chevrolet","","21"
"709","CRX","CRX","null","Honda","","49"
"150","CSX","CSX","null","Acura","","3"
"283","CTS","CTS","null","Cadillac","","17"
"1139","Cube","Cube","null","Nissan","","85"
"1474","Cultus","Cultus","null","Suzuki","","113"
"470","Cuore","Cuore","null","Daihatsu","","27"
"1564","Curren","Curren","null","Toyota","","121"
"1202","Cutlass","Cutlass","null","Oldsmobile","","86"
"1203","Cutlass Calais","Cutlass Calais","null","Oldsmobile","","86"
"1204","Cutlass Ciera","Cutlass Ciera","null","Oldsmobile","","86"
"1205","Cutlass Cruiser","Cutlass Cruiser","null","Oldsmobile","","86"
"1206","Cutlass Supreme","Cutlass Supreme","null","Oldsmobile","","86"
"410","CX","CX","null","Citroen","","23"
"2274","CX-5","CX-5","","Mazda","","77"
"983","CX-7","CX-7","null","Mazda","","77"
"984","CX-9","CX-9","null","Mazda","","77"
"2184","CX90","CX90","null","Volvo","","125"
"1565","Cynos","Cynos","null","Toyota","","121"
"819","D-Max","D-Max","null","Isuzu","","56"
"188","D10","D10","null","Alpina","","6"
"533","D8","D8","null","Donkervoort","","33"
"25","Dacia","Dacia","null","","","null"
"24","DADI","DADI","null","","","null"
"502","DADI Shuttle","DADI Shuttle","null","Derways","","30"
"26","Daewoo","Daewoo","null","","","null"
"27","Daihatsu","Daihatsu","null","","","null"
"28","Daimler","Daimler","null","","","null"
"2070","Daimler Sovereign","Daimler Sovereign","null","Jaguar","","58"
"512","Dakota","Dakota","null","Dodge","","31"
"434","Damas","Damas","null","Daewoo","","26"
"1140","Datsun","Datsun","null","Nissan","","85"
"378","Daytona","Daytona","null","Chrysler","","22"
"513","Daytona","Daytona","null","Dodge","","31"
"200","DB7","DB7","null","Aston Martin","","9"
"201","DB9","DB9","null","Aston Martin","","9"
"202","DBS","DBS","null","Aston Martin","","9"
"29","De Tomaso","De Tomaso","null","","","null"
"286","De Ville","De Ville","null","Cadillac","","17"
"1059","Debonair","Debonair","null","Mitsubishi","","82"
"886","Dedra","Dedra","null","Lancia","","63"
"688","Deer","Deer","null","Great Wall","","46"
"899","Defender","Defender","null","Land Rover","","64"
"2259","Defender 110","Defender 110","null","Land Rover","","64"
"714","Del Sol","Del Sol","null","Honda","","49"
"1060","Delica","Delica","null","Mitsubishi","","82"
"1207","Delta","Delta","null","Oldsmobile","","86"
"887","Delta","Delta","null","Lancia","","63"
"987","Demio","Demio","null","Mazda","","77"
"30","Derways","Derways","null","","","null"
"881","Diablo","Diablo","null","Lamborghini","","62"
"1061","Diamante","Diamante","null","Mitsubishi","","82"
"1450","Dias Wagon","Dias Wagon","null","Subaru","","112"
"1062","Dingo","Dingo","null","Mitsubishi","","82"
"1063","Dion","Dion","null","Mitsubishi","","82"
"900","Discovery","Discovery","null","Land Rover","","64"
"2170","Discovery 3","Discovery 3","null","Land Rover","","64"
"2118","Discovery 4","Discovery 4","null","Land Rover","","64"
"587","Doblo","Doblo","null","Fiat","","39"
"31","Dodge","Dodge","null","","","null"
"1516","Dogan","Dogan","null","Tofas","","120"
"715","Domani","Domani","null","Honda","","49"
"32","Doninvest","Doninvest","null","","","null"
"33","Donkervoort","Donkervoort","null","","","null"
"1728","Dragon","Dragon","null","Yzk","","130"
"2260","DS4","DS4","null","Citroen","","23"
"285","DTS","DTS","null","Cadillac","","17"
"588","Ducato","Ducato","null","Fiat","","39"
"1566","Duet","Duet","null","Toyota","","121"
"589","Duna","Duna","null","Fiat","","39"
"514","Durango","Durango","null","Dodge","","31"
"2121","Duster","Duster","null","Renault","","96"
"2299","Dyna","Dyna","","Toyota","","121"
"515","Dynasty","Dynasty","null","Dodge","","31"
"766","Dynasty","Dynasty","null","Hyundai","","52"
"831","E-Type","E-Type","null","Jaguar","","58"
"1021","E-класс","E-класс","null","Mercedes-Benz","","79"
"1451","E10","E10","null","Subaru","","112"
"1452","E12","E12","null","Subaru","","112"
"34","Eagle","Eagle","null","","","null"
"301","Eastar","Eastar","null","Chery","","20"
"264","EB 110","EB 110","null","Bugatti","","15"
"265","EB 112","EB 112","null","Bugatti","","15"
"1567","Echo","Echo","null","Toyota","","121"
"1065","Eclipse","Eclipse","null","Mitsubishi","","82"
"623","Econoline","Econoline","null","Ford","","40"
"624","Econovan","Econovan","null","Ford","","40"
"2309","EcoSport","EcoSport","","Ford","","40"
"625","Edge","Edge","null","Ford","","40"
"988","Efini MS-8","Efini MS-8","null","Mazda","","77"
"1208","Eighty Eight","Eighty Eight","null","Oldsmobile","","86"
"1064","EK","EK","null","Mitsubishi","","82"
"151","EL","EL","null","Acura","","3"
"858","Elan","Elan","null","Kia","","61"
"767","Elantra","Elantra","null","Hyundai","","52"
"287","Eldorado","Eldorado","null","Cadillac","","17"
"268","Electra","Electra","null","Buick","","16"
"716","Element","Element","null","Honda","","49"
"1141","Elgrand","Elgrand","null","Nissan","","85"
"925","Elise","Elise","null","Lotus","","69"
"717","Elysion","Elysion","null","Honda","","49"
"1066","Emeraude","Emeraude","null","Mitsubishi","","82"
"2298","Emgrand","Emgrand","","Geely","","42"
"269","Enclave","Enclave","null","Buick","","16"
"1067","Endeavor","Endeavor","null","Mitsubishi","","82"
"859","Enterprise","Enterprise","null","Kia","","61"
"768","Entourage","Entourage","null","Hyundai","","52"
"669","Envoy","Envoy","null","GMC","","41"
"561","Enzo","Enzo","null","Ferrari","","38"
"1660","EOS","EOS","null","Volkswagen","","124"
"329","Epica","Epica","null","Chevrolet","","21"
"1475","Equator","Equator","null","Suzuki","","113"
"330","Equinox","Equinox","null","Chevrolet","","21"
"769","Equis","Equis","null","Hyundai","","52"
"906","ES","ES","null","Lexus","","66"
"288","Escalade","Escalade","null","Cadillac","","17"
"2213","Escalade AWD","Escalade AWD","null","Cadillac","","17"
"626","Escape","Escape","null","Ford","","40"
"627","Escort","Escort","null","Ford","","40"
"1476","Escudo","Escudo","null","Suzuki","","113"
"1332","Espace","Espace","null","Renault","","96"
"882","Espada","Espada","null","Lamborghini","","62"
"1246","Esperante","Esperante","null","Panoz","","90"
"435","Espero","Espero","null","Daewoo","","26"
"926","Esprit","Esprit","null","Lotus","","69"
"471","Esse","Esse","null","Daihatsu","","27"
"1477","Esteem","Esteem","null","Suzuki","","113"
"950","Esteem","Esteem","null","Maruti","","74"
"1568","Estima","Estima","null","Toyota","","121"
"1569","Estima Lucida","Estima Lucida","null","Toyota","","121"
"1722","Estina","Estina","null","Vortex","","126"
"1068","Eterna","Eterna","null","Mitsubishi","","82"
"927","Europa","Europa","null","Lotus","","69"
"1661","EuroVan","EuroVan","null","Volkswagen","","124"
"436","Evanda","Evanda","null","Daewoo","","26"
"331","Evanda","Evanda","null","Chevrolet","","21"
"411","Evasion","Evasion","null","Citroen","","23"
"628","Everest","Everest","null","Ford","","40"
"1478","Every","Every","null","Suzuki","","113"
"800","EX","EX","null","Infiniti","","53"
"629","Excursion","Excursion","null","Ford","","40"
"1383","Exeo","Exeo","null","SEAT","","100"
"928","Exige","Exige","null","Lotus","","69"
"630","Expedition","Expedition","null","Ford","","40"
"1142","Expert","Expert","null","Nissan","","85"
"1271","Expert","Expert","null","Peugeot","","91"
"631","Explorer","Explorer","null","Ford","","40"
"2237","Explorer Limited","Explorer Limited","null","Ford","","40"
"2235","Explorer Sport Trac","Explorer Sport Trac","null","Ford","","40"
"931","Express","Express","null","MG","","70"
"1333","Express","Express","null","Renault","","96"
"332","Express","Express","null","Chevrolet","","21"
"1928","Express G1","Express G1","null","Chevrolet","","21"
"1933","Express G1500 ","Express G1500 ","null","Chevrolet","","21"
"472","Extol","Extol","null","Daihatsu","","27"
"248","F0","F0","null","BYD","","12"
"1013","F1","F1","null","McLaren","","78"
"632","F150","F150","null","Ford","","40"
"633","F250","F250","null","Ford","","40"
"249","F3","F3","null","BYD","","12"
"634","F350","F350","null","Ford","","40"
"562","F355 GTS","F355 GTS","null","Ferrari","","38"
"563","F355 Spider","F355 Spider","null","Ferrari","","38"
"564","F40","F40","null","Ferrari","","38"
"565","F430","F430","null","Ferrari","","38"
"566","F50","F50","null","Ferrari","","38"
"250","F6","F6","null","BYD","","12"
"251","F6","F6","null","BYD","","12"
"1422","Fabia","Fabia","null","Skoda","","108"
"1143","Fairlady","Fairlady","null","Nissan","","85"
"635","Fairline","Fairline","null","Ford","","40"
"989","Familia","Familia","null","Mazda","","77"
"2195","Family","Family","null","Chevrolet","","21"
"820","Faster","Faster","null","Isuzu","","56"
"1905","FAT BOY FLSTF/FLSTFI ","FAT BOY FLSTF/FLSTFI ","null","Harley-Davidson","","1884"
"1423","Favorit","Favorit","null","Skoda","","108"
"35","FAW","FAW","null","","","null"
"1424","Felicia","Felicia","null","Skoda","","108"
"473","Feroza","Feroza","null","Daihatsu","","27"
"38","Ferrari","Ferrari","null","","","null"
"636","Festiva","Festiva","null","Ford","","40"
"1650","Fetish","Fetish","null","Venturi","","123"
"39","Fiat","Fiat","null","","","null"
"637","Fiesta","Fiesta","null","Ford","","40"
"990","Fighter","Fighter","null","Mazda","","77"
"821","Filly","Filly","null","Isuzu","","56"
"1729","Fine","Fine","null","Yzk","","130"
"590","Fiorino","Fiorino","null","Fiat","","39"
"1283","Firebird","Firebird","null","Pontiac","","93"
"719","Fit","Fit","null","Honda","","49"
"638","Five Hundred","Five Hundred","null","Ford","","40"
"1570","FJ Cruiser","FJ Cruiser","null","Toyota","","121"
"289","Fleetwood","Fleetwood","null","Cadillac","","17"
"1922","FLHXI ","FLHXI ","null","Harley-Davidson","","1884"
"1903","FLSTC","FLSTC","null","Harley-Davidson","","1884"
"1885","Fluence","Fluence","","Renault","","96"
"252","Flyer","Flyer","null","BYD","","12"
"296","Flying","Flying","null","ChangFeng","","19"
"1730","Flying","Flying","null","Yzk","","130"
"639","Focus","Focus","null","Ford","","40"
"302","Fora","Fora","null","Chery","","20"
"40","Ford","Ford","null","","","null"
"1479","Forenza","Forenza","null","Suzuki","","113"
"1453","Forester","Forester","null","Subaru","","112"
"1434","Forfour","Forfour","null","Smart","","109"
"1425","Forman","Forman","null","Skoda","","108"
"1571","Fortuner","Fortuner","null","Toyota","","121"
"1435","Fortwo","Fortwo","null","Smart","","109"
"2233","Forward","Forward","null","Isuzu","","56"
"1662","Fox","Fox","null","Volkswagen","","124"
"718","FR-V","FR-V","null","Honda","","49"
"901","Freelander","Freelander","null","Land Rover","","64"
"2072","Freelander 2","Freelander 2","null","Land Rover","","64"
"2302","Freemont","Freemont","","Fiat","","39"
"640","Freestar","Freestar","null","Ford","","40"
"641","Freestyle","Freestyle","null","Ford","","40"
"1384","Freetrack","Freetrack","null","SEAT","","100"
"1223","Frontera","Frontera","null","Opel","","87"
"1144","Frontier","Frontier","null","Nissan","","85"
"36","FSO","FSO","null","","","null"
"37","FSR","FSR","null","","","null"
"1069","FTO","FTO","null","Mitsubishi","","82"
"1334","Fuego","Fuego","null","Renault","","96"
"2234","Fuga","Fuga","null","Nissan","","85"
"888","Fulvia","Fulvia","null","Lancia","","63"
"1572","Funcargo","Funcargo","null","Toyota","","121"
"642","Fusion","Fusion","null","Ford","","40"
"1070","Fuso Canter","Fuso Canter","null","Mitsubishi","","82"
"801","FX","FX","null","Infiniti","","53"
"1904","FX","FX","null","Jaguar","","58"
"2116","FX 37","FX 37","null","Infiniti","","53"
"685","G","G","null","Ginetta","","44"
"802","G COUPE","G COUPE","null","Infiniti","","53"
"803","G SEDAN","G SEDAN","null","Infiniti","","53"
"1022","G-класс","G-класс","null","Mercedes-Benz","","79"
"1284","G5","G5","null","Pontiac","","93"
"1285","G6","G6","null","Pontiac","","93"
"1286","G7","G7","null","Pontiac","","93"
"1287","G8","G8","null","Pontiac","","93"
"1573","Gaia","Gaia","null","Toyota","","121"
"2228","Gala","Gala","null","Toyota","","121"
"1072","Galant","Galant","null","Mitsubishi","","82"
"643","Galaxy","Galaxy","null","Ford","","40"
"883","Gallardo","Gallardo","null","Lamborghini","","62"
"770","Galloper","Galloper","null","Hyundai","","52"
"1109","Galue","Galue","null","Mitsuoka","","83"
"42","Geely","Geely","null","","","null"
"822","Gemini","Gemini","null","Isuzu","","56"
"771","Genesis","Genesis","null","Hyundai","","52"
"438","Gentra","Gentra","null","Daewoo","","26"
"1480","Geo","Geo","null","Suzuki","","113"
"43","Geo","Geo","null","","","null"
"333","Geo Storm","Geo Storm","null","Chevrolet","","21"
"334","Geo Tracker","Geo Tracker","null","Chevrolet","","21"
"772","Getz","Getz","null","Hyundai","","52"
"958","Ghibli","Ghibli","null","Maserati","","75"
"959","Ghibli II","Ghibli II","null","Maserati","","75"
"44","Ginetta","Ginetta","null","","","null"
"180","Giulietta","Giulietta","null","Alfa Romeo","","5"
"1023","GL-класс","GL-класс","null","Mercedes-Benz","","79"
"270","GL8","GL8","null","Buick","","16"
"1024","GLK-класс","GLK-класс","null","Mercedes-Benz","","79"
"1145","Gloria","Gloria","null","Nissan","","85"
"41","GMC","GMC","null","","","null"
"2160","GMT926","GMT926","null","Cadillac","","17"
"1663","Gol","Gol","null","Volkswagen","","124"
"1664","Golf","Golf","null","Volkswagen","","124"
"1665","Golf Plus","Golf Plus","null","Volkswagen","","124"
"45","Gonow","Gonow","null","","","null"
"474","Gran Move","Gran Move","null","Daihatsu","","27"
"960","Gran Sport","Gran Sport","null","Maserati","","75"
"961","Gran Turismo","Gran Turismo","null","Maserati","","75"
"644","Granada","Granada","null","Ford","","40"
"1289","Grand AM","Grand AM","null","Pontiac","","93"
"412","Grand C4 Picasso","Grand C4 Picasso","null","Citroen","","23"
"516","Grand Caravan","Grand Caravan","null","Dodge","","31"
"845","Grand Cherokee","Grand Cherokee","null","Jeep","","59"
"1335","Grand Espace","Grand Espace","null","Renault","","96"
"1574","Grand hiace","Grand hiace","null","Toyota","","121"
"1041","Grand Marquis","Grand Marquis","null","Mercury","","80"
"1290","Grand Prix","Grand Prix","null","Pontiac","","93"
"1336","Grand Scenic","Grand Scenic","null","Renault","","96"
"1732","Grand Tiger","Grand Tiger","null","ZX","","131"
"1481","Grand Vitara","Grand Vitara","null","Suzuki","","113"
"2158","Grand Vitara XL","Grand Vitara XL","null","Suzuki","","113"
"379","Grand Voyager","Grand Voyager","null","Chrysler","","22"
"860","GrandBird","GrandBird","null","Kia","","61"
"591","Grande Punto","Grande Punto","null","Fiat","","39"
"773","Grandeur","Grandeur","null","Hyundai","","52"
"1073","Grandis","Grandis","null","Mitsubishi","","82"
"2297","Granta","Granta","","ВАЗ","","132"
"1575","Granvia","Granvia","null","Toyota","","121"
"46","Great Wall","Great Wall","null","","","null"
"1502","Griffith","Griffith","null","TVR","","114"
"907","GS","GS","null","Lexus","","66"
"178","GT","GT","null","Alfa Romeo","","5"
"1224","GT","GT","null","Opel","","87"
"567","GTB","GTB","null","Ferrari","","38"
"1071","GTO","GTO","null","Mitsubishi","","82"
"1288","GTO","GTO","null","Pontiac","","93"
"179","GTV","GTV","null","Alfa Romeo","","5"
"497","Guara","Guara","null","De Tomaso","","29"
"908","GX","GX","null","Lexus","","66"
"437","GX2","GX2","null","Daewoo","","26"
"687","GX6","GX6","null","Gonow","","45"
"951","Gypsy","Gypsy","null","Maruti","","74"
"757","H1","H1","null","Hummer","","51"
"774","H1 (Starex)","H1 (Starex)","null","Hyundai","","52"
"775","H100","H100","null","Hyundai","","52"
"758","H2","H2","null","Hummer","","51"
"776","H200","H200","null","Hyundai","","52"
"759","H3","H3","null","Hummer","","51"
"47","Hafei","Hafei","null","","","null"
"849","Haise","Haise","null","Jindei","","60"
"1884","Harley-Davidson","Harley-Davidson","null","","","null"
"1576","Harrier","Harrier","null","Toyota","","121"
"335","HHR","HHR","null","Chevrolet","","21"
"475","Hi Jet","Hi Jet","null","Daihatsu","","27"
"197","Hi-Topic","Hi-Topic","null","Asia","","8"
"1577","Hiace","Hiace","null","Toyota","","121"
"1578","Highlander","Highlander","null","Toyota","","121"
"1579","Hilux","Hilux","null","Toyota","","121"
"1580","Hilux Surf","Hilux Surf","null","Toyota","","121"
"48","Holden","Holden","null","","","null"
"49","Honda","Honda","null","","","null"
"809","Honker","Honker","null","Intrall","","54"
"1507","Horizon","Horizon","null","Talbot","","115"
"689","Hover","Hover","null","Great Wall","","46"
"539","HQ3","HQ3","null","FAW","","35"
"720","HR-V","HR-V","null","Honda","","49"
"50","Huanghai","Huanghai","null","","","null"
"51","Hummer","Hummer","null","","","null"
"1869","Hunter / 315195","Hunter / 315195","null","УАЗ","","143"
"52","Hyundai","Hyundai","null","","","null"
"804","I","I","null","Infiniti","","53"
"1108","i","i","null","Mitsubishi","","82"
"798","i10","i10","null","Hyundai","","52"
"2250","i20","i20","null","Hyundai","","52"
"799","i30","i30","null","Hyundai","","52"
"2284","i40","i40","","Hyundai","","52"
"1385","Ibiza","Ibiza","null","SEAT","","100"
"592","Idea","Idea","null","Fiat","","39"
"1482","Ignis","Ignis","null","Suzuki","","113"
"645","Ikon","Ikon","null","Ford","","40"
"1666","Iltis","Iltis","null","Volkswagen","","124"
"336","Impala","Impala","null","Chevrolet","","21"
"1454","Impreza","Impreza","null","Subaru","","112"
"1455","Impreza WRX STI","Impreza WRX STI","null","Subaru","","112"
"1386","Inca","Inca","null","SEAT","","100"
"1509","Indica","Indica","null","Tata","","116"
"53","Infiniti","Infiniti","null","","","null"
"721","Insight","Insight","null","Honda","","49"
"1225","Insignia","Insignia","null","Opel","","87"
"722","Inspire","Inspire","null","Honda","","49"
"723","Integra","Integra","null","Honda","","49"
"152","Integra","Integra","null","Acura","","3"
"2239","Integra","Integra","null","Toyota","","121"
"54","Intrall","Intrall","null","","","null"
"380","Intrepid","Intrepid","null","Chrysler","","22"
"517","Intrepid","Intrepid","null","Dodge","","31"
"1209","Intrigue","Intrigue","null","Oldsmobile","","86"
"1404","ION","ION","null","Saturn","","104"
"1405","Ion Red Line","Ion Red Line","null","Saturn","","104"
"337","Ipanema","Ipanema","null","Chevrolet","","21"
"1581","Ipsum","Ipsum","null","Toyota","","121"
"55","Iran Khodro","Iran Khodro","null","","","null"
"909","IS","IS","null","Lexus","","66"
"1582","Isis","Isis","null","Toyota","","121"
"1583","Ist","Ist","null","Toyota","","121"
"1441","Istana","Istana","null","SsangYong","","111"
"439","Istana","Istana","null","Daewoo","","26"
"56","Isuzu","Isuzu","null","","","null"
"1899","ix35","ix35","null","Hyundai","","52"
"2205","ix55","ix55","null","Hyundai","","52"
"805","J30","J30","null","Infiniti","","53"
"58","Jaguar","Jaguar","null","","","null"
"724","Jazz","Jazz","null","Honda","","49"
"59","Jeep","Jeep","null","","","null"
"1667","Jetta","Jetta","null","Volkswagen","","124"
"670","Jimmy","Jimmy","null","GMC","","41"
"1483","Jimny","Jimny","null","Suzuki","","113"
"60","Jindei","Jindei","null","","","null"
"540","Jinn","Jinn","null","FAW","","35"
"57","JMC","JMC","null","","","null"
"861","Joice","Joice","null","Kia","","61"
"518","Journey","Journey","null","Dodge","","31"
"2227","Juke","Juke","null","Nissan","","85"
"413","Jumper","Jumper","null","Citroen","","23"
"414","Jumpy","Jumpy","null","Citroen","","23"
"1456","Justy","Justy","null","Subaru","","112"
"2253","JX","JX","null","Infiniti","","53"
"862","K","K","null","Kia","","61"
"338","K3500","K3500","null","Chevrolet","","21"
"646","Ka","Ka","null","Ford","","40"
"1226","Kadett","Kadett","null","Opel","","87"
"1668","Kaefer","Kaefer","null","Volkswagen","","124"
"1764","Kalina","Kalina","null","ВАЗ","","132"
"440","Kalos","Kalos","null","Daewoo","","26"
"1337","Kangoo","Kangoo","null","Renault","","96"
"2124","Kangoo 4LT","Kangoo 4LT","null","Renault","","96"
"889","Kappa","Kappa","null","Lancia","","63"
"2303","Kaptur","Kaptur","","Renault","","96"
"1517","Kartal","Kartal","null","Tofas","","120"
"1484","Kei","Kei","null","Suzuki","","113"
"61","Kia","Kia","null","","","null"
"303","Kimo","Kimo","null","Chery","","20"
"1584","Kluger","Kluger","null","Toyota","","121"
"2306","Kodiaq","Kodiaq","","Skoda","","108"
"1338","Koleos","Koleos","null","Renault","","96"
"531","Kondor","Kondor","null","Doninvest","","32"
"441","Korando","Korando","null","Daewoo","","26"
"1442","Korando","Korando","null","SsangYong","","111"
"1443","Korando Family","Korando Family","null","SsangYong","","111"
"647","Kuga","Kuga","null","Ford","","40"
"1444","Kyron","Kyron","null","SsangYong","","111"
"1074","L200","L200","null","Mitsubishi","","82"
"1075","L300","L300","null","Mitsubishi","","82"
"1076","L400","L400","null","Mitsubishi","","82"
"271","La Crosse","La Crosse","null","Buick","","16"
"442","Labo","Labo","null","Daewoo","","26"
"339","Lacetti","Lacetti","null","Chevrolet","","21"
"443","Lacetti","Lacetti","null","Daewoo","","26"
"2240","Lada","Lada","null","","","null"
"2312","Lafesta","Lafesta","","Nissan","","85"
"725","Lagreat","Lagreat","null","Honda","","49"
"1339","Laguna","Laguna","null","Renault","","96"
"62","Lamborghini","Lamborghini","null","","","null"
"1077","Lancer","Lancer","null","Mitsubishi","","82"
"1078","Lancer Cedia","Lancer Cedia","null","Mitsubishi","","82"
"1079","Lancer Evolution","Lancer Evolution","null","Mitsubishi","","82"
"63","Lancia","Lancia","null","","","null"
"503","Land Crown","Land Crown","null","Derways","","30"
"1585","Land Cruiser","Land Cruiser","null","Toyota","","121"
"1931","Land Cruiser 100","Land Cruiser 100","null","Toyota","","121"
"1930","Land Cruiser 120","Land Cruiser 120","null","Toyota","","121"
"2294","Land Cruiser 150","Land Cruiser 150","","Toyota","","121"
"2067","Land Cruiser 200","Land Cruiser 200","null","Toyota","","121"
"2258","Land Cruiser 70","Land Cruiser 70","null","Toyota","","121"
"1968","Land Cruiser 76","Land Cruiser 76","null","Toyota","","121"
"2231","Land Cruiser 80","Land Cruiser 80","null","Toyota","","121"
"2232","Land Cruiser Cygnus","Land Cruiser Cygnus","null","Toyota","","121"
"1586","Land Cruiser Prado","Land Cruiser Prado","null","Toyota","","121"
"64","Land Rover","Land Rover","null","","","null"
"1733","landmark","landmark","null","ZX","","131"
"754","Landscape","Landscape","null","Huanghai","","50"
"65","Landwind","Landwind","null","","","null"
"340","Lanos","Lanos","null","Chevrolet","","21"
"444","Lanos","Lanos","null","Daewoo","","26"
"991","Lantis","Lantis","null","Mazda","","77"
"777","Lantra","Lantra","null","Hyundai","","52"
"1485","Lapin","Lapin","null","Suzuki","","113"
"1146","Largo","Largo","null","Nissan","","85"
"1276","Laser","Laser","null","Plymouth","","92"
"648","Laser","Laser","null","Ford","","40"
"1147","Laurel","Laurel","null","Nissan","","85"
"778","Lavita","Lavita","null","Hyundai","","52"
"382","Le Baron","Le Baron","null","Chrysler","","22"
"272","Le Sabre","Le Sabre","null","Buick","","16"
"1110","Le-Seyde","Le-Seyde","null","Mitsuoka","","83"
"1457","Legacy","Legacy","null","Subaru","","112"
"445","Leganza","Leganza","null","Daewoo","","26"
"153","Legend","Legend","null","Acura","","3"
"726","Legend","Legend","null","Honda","","49"
"1080","Legnum","Legnum","null","Mitsubishi","","82"
"1291","Lemans","Lemans","null","Pontiac","","93"
"446","Lemans","Lemans","null","Daewoo","","26"
"1387","Leon","Leon","null","SEAT","","100"
"1458","Leone","Leone","null","Subaru","","112"
"1148","Leopard","Leopard","null","Nissan","","85"
"992","Levante","Levante","null","Mazda","","77"
"66","Lexus","Lexus","null","","","null"
"381","LHS","LHS","null","Chrysler","","22"
"1486","Liana","Liana","null","Suzuki","","113"
"2262","Lianca","Lianca","null","Fiat","","39"
"1081","Libero","Libero","null","Mitsubishi","","82"
"1459","Libero","Libero","null","Subaru","","112"
"1149","Liberty","Liberty","null","Nissan","","85"
"846","Liberty","Liberty","null","Jeep","","59"
"1731","Liebao","Liebao","null","Yzk","","130"
"67","Lifan","Lifan","null","","","null"
"727","Life","Life","null","Honda","","49"
"495","Limousine","Limousine","null","Daimler","","28"
"68","Lincoln","Lincoln","null","","","null"
"593","Linea","Linea","null","Fiat","","39"
"1587","Lite Ace","Lite Ace","null","Toyota","","121"
"1150","Livina Geniss","Livina Geniss","null","Nissan","","85"
"884","LM-002","LM-002","null","Lamborghini","","62"
"1340","Logan","Logan","null","Renault","","96"
"429","Logan","Logan","null","Dacia","","25"
"728","Logo","Logo","null","Honda","","49"
"69","Lotus","Lotus","null","","","null"
"910","LS","LS","null","Lexus","","66"
"918","LS","LS","null","Lincoln","","68"
"1406","LS","LS","null","Saturn","","104"
"1669","LT","LT","null","Volkswagen","","124"
"810","Lublin","Lublin","null","Intrall","","54"
"273","Lucerne","Lucerne","null","Buick","","16"
"993","Luci","Luci","null","Mazda","","77"
"1151","Lucino","Lucino","null","Nissan","","85"
"341","Lumina","Lumina","null","Chevrolet","","21"
"1670","Lupo","Lupo","null","Volkswagen","","124"
"2267","LVD","LVD","null","","","null"
"1407","LW","LW","null","Saturn","","104"
"911","LX","LX","null","Lexus","","66"
"890","Lybra","Lybra","null","Lancia","","63"
"1911","LYNX","LYNX","null","","","null"
"806","M","M","null","Infiniti","","53"
"962","M 128","M 128","null","Maserati","","75"
"1804","M-1","M-1","null","ГАЗ","","134"
"1805","M-20","M-20","null","ГАЗ","","134"
"1025","M-класс","M-класс","null","Mercedes-Benz","","79"
"261","M1 (Zhonghua)","M1 (Zhonghua)","null","Brilliance","","14"
"2211","M170","M170","null","Willys","","2210"
"262","M2 (JunJie)","M2 (JunJie)","null","Brilliance","","14"
"237","M3","M3","null","BMW","","11"
"2159","M37","M37","null","Infiniti","","53"
"2266","M37X","M37X","null","Infiniti","","53"
"238","M5","M5","null","BMW","","11"
"239","M6","M6","null","BMW","","11"
"2115","Madena","Madena","null","Ferrari","","38"
"1375","Maestro","Maestro","null","Rover","","99"
"863","Magentis","Magentis","null","Kia","","61"
"1082","Magna","Magna","null","Mitsubishi","","82"
"1341","Magnum","Magnum","null","Renault","","96"
"519","Magnum","Magnum","null","Dodge","","31"
"447","Magnus","Magnus","null","Daewoo","","26"
"72","Mahindra","Mahindra","null","","","null"
"755","Major","Major","null","Huanghai","","50"
"342","Malibu","Malibu","null","Chevrolet","","21"
"148","Mamba","Mamba","null","AC","","2"
"1227","Manta","Manta","null","Opel","","87"
"946","Mantaray","Mantaray","null","Marcos","","73"
"947","Mantis","Mantis","null","Marcos","","73"
"1388","Marbella","Marbella","null","SEAT","","100"
"1152","March","March","null","Nissan","","85"
"779","Marcia","Marcia","null","Hyundai","","52"
"73","Marcos","Marcos","null","","","null"
"594","Marea","Marea","null","Fiat","","39"
"1042","Mariner","Mariner","null","Mercury","","80"
"841","mark","mark","null","Jaguar","","58"
"921","Mark","Mark","null","Lincoln","","68"
"1590","Mark II","Mark II","null","Toyota","","121"
"922","Mark LT","Mark LT","null","Lincoln","","68"
"1591","Mark X","Mark X","null","Toyota","","121"
"945","Marshal","Marshal","null","Mahindra","","72"
"74","Maruti","Maruti","null","","","null"
"1342","Mascott","Mascott","null","Renault","","96"
"75","Maserati","Maserati","null","","","null"
"1343","Master","Master","null","Renault","","96"
"476","Materia","Materia","null","Daihatsu","","27"
"448","Matiz","Matiz","null","Daewoo","","26"
"780","Matrix","Matrix","null","Hyundai","","52"
"1592","Matrix","Matrix","null","Toyota","","121"
"649","Maverick","Maverick","null","Ford","","40"
"477","Max","Max","null","Daihatsu","","27"
"1153","Maxima","Maxima","null","Nissan","","85"
"1154","Maxima QX","Maxima QX","null","Nissan","","85"
"1895","Maxus","Maxus","null","LVD","","2267"
"76","Maybach","Maybach","null","","","null"
"77","Mazda","Mazda","null","","","null"
"144","MC 1","MC 1","null","Microcar","","1"
"78","McLaren","McLaren","null","","","null"
"154","MDX","MDX","null","Acura","","3"
"1344","Megane","Megane","null","Renault","","96"
"2122","Megane II CFE16 115 Р3","Megane II CFE16 115 Р3","null","Renault","","96"
"2123","Megane IIEX2CEA 110 3C","Megane IIEX2CEA 110 3C","null","Renault","","96"
"79","Mercedes-Benz","Mercedes-Benz","null","","","null"
"80","Mercury","Mercury","null","","","null"
"1228","Meriva","Meriva","null","Opel","","87"
"343","Meriva","Meriva","null","Chevrolet","","21"
"344","Metro","Metro","null","Chevrolet","","21"
"1376","Metro","Metro","null","Rover","","99"
"81","Metrocab","Metrocab","null","","","null"
"70","MG","MG","null","","","null"
"1374","MGF","MGF","null","Rover","","99"
"932","MGF","MGF","null","MG","","70"
"1155","Micra","Micra","null","Nissan","","85"
"1","Microcar","Microcar","null","","","null"
"933","Midget","Midget","null","MG","","70"
"824","Midi","Midi","null","Isuzu","","56"
"1345","Midlum","Midlum","null","Renault","","96"
"1043","Milan","Milan","null","Mercury","","80"
"999","Millenia","Millenia","null","Mazda","","77"
"1377","Mini","Mini","null","Rover","","99"
"71","MINI","MINI","null","","","null"
"1083","Minica","Minica","null","Mitsubishi","","82"
"478","Mira","Mira","null","Daihatsu","","27"
"1084","Mirage","Mirage","null","Mitsubishi","","82"
"1156","Mistral","Mistral","null","Nissan","","85"
"181","MiTo","MiTo","null","Alfa Romeo","","5"
"82","Mitsubishi","Mitsubishi","null","","","null"
"83","Mitsuoka","Mitsuoka","null","","","null"
"678","MK","MK","null","Geely","","42"
"919","MKX","MKX","null","Lincoln","","68"
"920","MKZ","MKZ","null","Lincoln","","68"
"2293","ML-класс","ML-класс","","Mercedes-Benz","","79"
"479","Mobe","Mobe","null","Daihatsu","","27"
"729","Mobilio","Mobilio","null","Honda","","49"
"1157","Moco","Moco","null","Nissan","","85"
"1346","Modus","Modus","null","Renault","","96"
"2316","Mojave","Mojave","null","Kia","","61"
"2251","Mokka","Mokka","null","Opel","","87"
"520","Monaco","Monaco","null","Dodge","","31"
"650","Mondeo","Mondeo","null","Ford","","40"
"568","Mondial 3.2","Mondial 3.2","null","Ferrari","","38"
"569","Mondial 8","Mondial 8","null","Ferrari","","38"
"570","Mondial T","Mondial T","null","Ferrari","","38"
"345","Montana","Montana","null","Chevrolet","","21"
"1292","Montana","Montana","null","Pontiac","","93"
"346","Monte Carlo","Monte Carlo","null","Chevrolet","","21"
"1229","Monterey","Monterey","null","Opel","","87"
"1085","Montero","Montero","null","Mitsubishi","","82"
"1086","Montero Sport","Montero Sport","null","Mitsubishi","","82"
"1230","Monza","Monza","null","Opel","","87"
"347","Monza","Monza","null","Chevrolet","","21"
"84","Morgan","Morgan","null","","","null"
"1044","Mountaineer","Mountaineer","null","Mercury","","80"
"1231","Movano","Movano","null","Opel","","87"
"480","Move","Move","null","Daihatsu","","27"
"994","MPV","MPV","null","Mazda","","77"
"995","MPV 2","MPV 2","null","Mazda","","77"
"1588","MR2","MR2","null","Toyota","","121"
"1589","MRS","MRS","null","Toyota","","121"
"823","MU","MU","null","Isuzu","","56"
"259","Mulsanne","Mulsanne","null","Bentley","","13"
"595","Multipla","Multipla","null","Fiat","","39"
"1671","Multivan","Multivan","null","Volkswagen","","124"
"1158","Murano","Murano","null","Nissan","","85"
"885","Murcielago","Murcielago","null","Lamborghini","","62"
"891","Musa","Musa","null","Lancia","","63"
"1445","Musso","Musso","null","SsangYong","","111"
"449","Musso","Musso","null","Daewoo","","26"
"1446","Musso Sports","Musso Sports","null","SsangYong","","111"
"651","Mustang","Mustang","null","Ford","","40"
"996","MX3","MX3","null","Mazda","","77"
"997","MX5","MX5","null","Mazda","","77"
"998","MX6","MX6","null","Mazda","","77"
"1045","Mystique","Mystique","null","Mercury","","80"
"1593","Nadia","Nadia","null","Toyota","","121"
"481","Naked","Naked","null","Daihatsu","","27"
"1160","Navara","Navara","null","Nissan","","85"
"923","Navigator","Navigator","null","Lincoln","","68"
"383","Neon","Neon","null","Chrysler","","22"
"521","Neon","Neon","null","Dodge","","31"
"1277","Neon","Neon","null","Plymouth","","92"
"1347","Nevada","Nevada","null","Renault","","96"
"1672","NEW Beetle","NEW Beetle","null","Volkswagen","","124"
"1897","NEW HOLLAND","NEW HOLLAND","null","","","null"
"384","New Yorker","New Yorker","null","Chrysler","","22"
"450","Nexia","Nexia","null","Daewoo","","26"
"781","NF Sonata","NF Sonata","null","Hyundai","","52"
"1210","Nineghty eight","Nineghty eight","null","Oldsmobile","","86"
"85","Nissan","Nissan","null","","","null"
"522","Nitro","Nitro","null","Dodge","","31"
"348","Niva","Niva","null","Chevrolet","","21"
"1594","Noah","Noah","null","Toyota","","121"
"1161","Note","Note","null","Nissan","","85"
"349","Nova","Nova","null","Chevrolet","","21"
"430","Nova","Nova","null","Dacia","","25"
"1159","NP300","NP300","null","Nissan","","85"
"155","NSX","NSX","null","Acura","","3"
"730","NSX","NSX","null","Honda","","49"
"451","Nubira","Nubira","null","Daewoo","","26"
"2314","NX","NX","","Lexus","","66"
"1426","Octavia","Octavia","null","Skoda","","108"
"1427","Octavia Scout","Octavia Scout","null","Skoda","","108"
"1428","Octavia Tour","Octavia Tour","null","Skoda","","108"
"731","Odyssey","Odyssey","null","Honda","","49"
"86","Oldsmobile","Oldsmobile","null","","","null"
"1232","Olimpia","Olimpia","null","Opel","","87"
"1211","Omega","Omega","null","Oldsmobile","","86"
"1233","Omega","Omega","null","Opel","","87"
"350","Omega","Omega","null","Chevrolet","","21"
"523","Omni","Omni","null","Dodge","","31"
"952","Omni","Omni","null","Maruti","","74"
"941","One","One","null","MINI","","71"
"1595","Opa","Opa","null","Toyota","","121"
"87","Opel","Opel","null","","","null"
"864","Opirus","Opirus","null","Kia","","61"
"482","Opti","Opti","null","Daihatsu","","27"
"865","Optima","Optima","null","Kia","","61"
"1596","Origin","Origin","null","Toyota","","121"
"532","Orion","Orion","null","Doninvest","","32"
"652","Orion","Orion","null","Ford","","40"
"2307","Orlando","Orlando","","Chevrolet","","21"
"732","Orthia","Orthia","null","Honda","","49"
"679","Otaka","Otaka","null","Geely","","42"
"1162","Otti","Otti","null","Nissan","","85"
"1460","Outback","Outback","null","Subaru","","112"
"1087","Outlander","Outlander","null","Mitsubishi","","82"
"1088","Outlander XL","Outlander XL","null","Mitsubishi","","82"
"1408","Outlook","Outlook","null","Saturn","","104"
"386","Pacifica","Pacifica","null","Chrysler","","22"
"89","Pagani","Pagani","null","","","null"
"1089","Pajero","Pajero","null","Mitsubishi","","82"
"1090","Pajero IO","Pajero IO","null","Mitsubishi","","82"
"1091","Pajero Junior","Pajero Junior","null","Mitsubishi","","82"
"1092","Pajero Mini","Pajero Mini","null","Mitsubishi","","82"
"1093","Pajero Pinin","Pajero Pinin","null","Mitsubishi","","82"
"1094","Pajero Sport","Pajero Sport","null","Mitsubishi","","82"
"596","Palio","Palio","null","Fiat","","39"
"2034","Panamera","Panamera","null","Porsche","","94"
"597","Panda","Panda","null","Fiat","","39"
"90","Panoz","Panoz","null","","","null"
"498","Pantera","Pantera","null","De Tomaso","","29"
"1673","Parati","Parati","null","Volkswagen","","124"
"274","Park Avenue","Park Avenue","null","Buick","","16"
"1359","Park Ward","Park Ward","null","Rolls-Royce","","98"
"811","Pars","Pars","null","Iran Khodro","","55"
"733","Partner","Partner","null","Honda","","49"
"1272","Partner","Partner","null","Peugeot","","91"
"1597","Paseo","Paseo","null","Toyota","","121"
"1674","Passat","Passat","null","Volkswagen","","124"
"1675","Passat CC","Passat CC","null","Volkswagen","","124"
"1598","Passo","Passo","null","Toyota","","121"
"734","Passport","Passport","null","Honda","","49"
"1163","Pathfinder","Pathfinder","null","Nissan","","85"
"1164","Pathfinder Aramada","Pathfinder Aramada","null","Nissan","","85"
"847","Patriot","Patriot","null","Jeep","","59"
"1874","Patriot / 3163","Patriot / 3163","null","УАЗ","","143"
"1165","Patrol","Patrol","null","Nissan","","85"
"690","Pegasus","Pegasus","null","Great Wall","","46"
"691","Peri","Peri","null","Great Wall","","46"
"1315","Persona","Persona","null","Proton","","95"
"91","Peugeot","Peugeot","null","","","null"
"1676","Phaeton","Phaeton","null","Volkswagen","","124"
"1360","Phantom","Phantom","null","Rolls-Royce","","98"
"892","Phedra","Phedra","null","Lancia","","63"
"1293","Phoenix","Phoenix","null","Pontiac","","93"
"866","Picanto","Picanto","null","Kia","","61"
"1000","Pick-Up","Pick-Up","null","Mazda","","77"
"1166","Pickup","Pickup","null","Nissan","","85"
"162","Pickup","Pickup","null","Admiral","","4"
"1725","Pickup X3","Pickup X3","null","Xin Kai","","129"
"1599","Picnic","Picnic","null","Toyota","","121"
"735","Pilot","Pilot","null","Honda","","49"
"1244","Pinzgauer","Pinzgauer","null","Steyr-Daimler-Puch","","88"
"483","Pizar","Pizar","null","Daihatsu","","27"
"1600","Platz","Platz","null","Toyota","","121"
"1461","Pleo","Pleo","null","Subaru","","112"
"1113","Plus 4","Plus 4","null","Morgan","","84"
"1114","Plus 8","Plus 8","null","Morgan","","84"
"504","Plutus","Plutus","null","Derways","","30"
"756","Plutus","Plutus","null","Huanghai","","50"
"92","Plymouth","Plymouth","null","","","null"
"1677","Pointer","Pointer","null","Volkswagen","","124"
"1678","Polo","Polo","null","Volkswagen","","124"
"452","Polonez","Polonez","null","Daewoo","","26"
"542","Polonez","Polonez","null","FSO","","36"
"93","Pontiac","Pontiac","null","","","null"
"782","Pony","Pony","null","Hyundai","","52"
"94","Porsche","Porsche","null","","","null"
"1601","Porte","Porte","null","Toyota","","121"
"783","Porter","Porter","null","Hyundai","","52"
"867","Potentia","Potentia","null","Kia","","61"
"1167","Prairie","Prairie","null","Nissan","","85"
"1429","Praktik","Praktik","null","Skoda","","108"
"1095","Precis","Precis","null","Mitsubishi","","82"
"868","Pregio","Pregio","null","Kia","","61"
"736","Prelude","Prelude","null","Honda","","49"
"1001","Premacy","Premacy","null","Mazda","","77"
"1602","Premio","Premio","null","Toyota","","121"
"1348","Premium","Premium","null","Renault","","96"
"1168","Presage","Presage","null","Nissan","","85"
"1169","Presea","Presea","null","Nissan","","85"
"1170","President","President","null","Nissan","","85"
"1603","Previa","Previa","null","Toyota","","121"
"869","Pride","Pride","null","Kia","","61"
"1171","Primastar","Primastar","null","Nissan","","85"
"1172","Primera","Primera","null","Nissan","","85"
"2142","Primera 2.0","Primera 2.0","null","Nissan","","85"
"453","Prince","Prince","null","Daewoo","","26"
"699","Princip","Princip","null","Hafei","","47"
"2276","Priora","Priora","","Lada","","2240"
"1765","Priora","Priora","null","ВАЗ","","132"
"893","Prisma","Prisma","null","Lancia","","63"
"1604","Prius","Prius","null","Toyota","","121"
"682","Prizm","Prizm","null","Geo","","43"
"351","Prizm","Prizm","null","Chevrolet","","21"
"352","Prizma","Prizma","null","Chevrolet","","21"
"653","Probe","Probe","null","Ford","","40"
"1605","Probox","Probox","null","Toyota","","121"
"1002","Proceed","Proceed","null","Mazda","","77"
"1606","Progres","Progres","null","Toyota","","121"
"1607","Pronard","Pronard","null","Toyota","","121"
"1003","Protege","Protege","null","Mazda","","77"
"95","Proton","Proton","null","","","null"
"1096","Proudia","Proudia","null","Mitsubishi","","82"
"1278","Prowler","Prowler","null","Plymouth","","92"
"387","Prowler","Prowler","null","Chrysler","","22"
"385","PT Cruiser","PT Cruiser","null","Chrysler","","22"
"1026","Pullmann","Pullmann","null","Mercedes-Benz","","79"
"1173","Pulsar","Pulsar","null","Nissan","","85"
"654","Puma","Puma","null","Ford","","40"
"598","Punto","Punto","null","Fiat","","39"
"1316","Putra","Putra","null","Proton","","95"
"2172","Q3","Q3","null","Audi","","10"
"807","Q45","Q45","null","Infiniti","","53"
"218","Q5","Q5","null","Audi","","10"
"219","Q7","Q7","null","Audi","","10"
"1174","Qashqai","Qashqai","null","Nissan","","85"
"304","QQ","QQ","null","Chery","","20"
"305","QQ 6","QQ 6","null","Chery","","20"
"1679","Quantum","Quantum","null","Volkswagen","","124"
"963","Quattroporte","Quattroporte","null","Maserati","","75"
"1175","Quest","Quest","null","Nissan","","85"
"2313","Quoris","Quoris","","Kia","","61"
"808","QX","QX","null","Infiniti","","53"
"1176","R'nessa","R'nessa","null","Nissan","","85"
"1027","R-класс","R-класс","null","Mercedes-Benz","","79"
"1462","R1","R1","null","Subaru","","112"
"1463","R2","R2","null","Subaru","","112"
"220","R8","R8","null","Audi","","10"
"454","Racer","Racer","null","Daewoo","","26"
"1608","Ractis","Ractis","null","Toyota","","121"
"737","Rafaga","Rafaga","null","Honda","","49"
"1098","Raider","Raider","null","Mitsubishi","","82"
"275","Rainer","Rainer","null","Buick","","16"
"524","Ram","Ram","null","Dodge","","31"
"902","Range Rover","Range Rover","null","Land Rover","","64"
"2300","Range Rover Evoque","Range Rover Evoque","","Land Rover","","64"
"903","Range Rover Sport","Range Rover Sport","null","Land Rover","","64"
"1920","Range Rover Vogue","Range Rover Vogue","null","Land Rover","","64"
"2174","Range Rover Vogue","Range Rover Vogue","null","Land Rover","","64"
"655","Ranger","Ranger","null","Ford","","40"
"1349","Rapid","Rapid","null","Renault","","96"
"1430","Rapid","Rapid","null","Skoda","","108"
"2238","Rapide","Rapide","null","Aston Martin","","9"
"1177","Rasheen","Rasheen","null","Nissan","","85"
"1609","Raum","Raum","null","Toyota","","121"
"1610","Rav 4","Rav 4","null","Toyota","","121"
"156","RDX","RDX","null","Acura","","3"
"276","Regal","Regal","null","Buick","","16"
"599","Regata","Regata","null","Fiat","","39"
"1611","Regius","Regius","null","Toyota","","121"
"1612","Regius ACE","Regius ACE","null","Toyota","","121"
"1234","Rekord","Rekord","null","Opel","","87"
"96","Renault","Renault","null","","","null"
"277","RendezVous","RendezVous","null","Buick","","16"
"2311","Renegade","Renegade","","Jeep","","59"
"1487","Reno","Reno","null","Suzuki","","113"
"198","Retona","Retona","null","Asia","","8"
"870","Retona","Retona","null","Kia","","61"
"1447","Rexton","Rexton","null","SsangYong","","111"
"353","Rezzo","Rezzo","null","Chevrolet","","21"
"455","Rezzo","Rezzo","null","Daewoo","","26"
"738","Ridgeline","Ridgeline","null","Honda","","49"
"871","Rio","Rio","null","Kia","","61"
"600","Ritmo","Ritmo","null","Fiat","","39"
"278","Riviera","Riviera","null","Buick","","16"
"157","RL","RL","null","Acura","","3"
"279","Roadmaster","Roadmaster","null","Buick","","16"
"1724","Roadster","Roadster","null","Wiesmann","","128"
"1436","Roadster","Roadster","null","Smart","","109"
"189","Roadster S","Roadster S","null","Alpina","","6"
"2273","Robinson","Robinson","null","","","null"
"484","Rocky","Rocky","null","Daihatsu","","27"
"199","Rocsta","Rocsta","null","Asia","","8"
"825","Rodeo","Rodeo","null","Isuzu","","56"
"1448","Rodius","Rodius","null","SsangYong","","111"
"97","Roewe","Roewe","null","","","null"
"1178","Rogue","Rogue","null","Nissan","","85"
"98","Rolls-Royce","Rolls-Royce","null","","","null"
"1431","Roomster","Roomster","null","Skoda","","108"
"99","Rover","Rover","null","","","null"
"221","RS4","RS4","null","Audi","","10"
"222","RS6","RS6","null","Audi","","10"
"158","RSX","RSX","null","Acura","","3"
"1613","Rush","Rush","null","Toyota","","121"
"1097","RVR","RVR","null","Mitsubishi","","82"
"912","RX","RX","null","Lexus","","66"
"1004","RX-4","RX-4","null","Mazda","","77"
"1005","RX-7","RX-7","null","Mazda","","77"
"1006","RX-8","RX-8","null","Mazda","","77"
"2247","S","S","null","Tesla","","2246"
"784","S Coupe","S Coupe","null","Hyundai","","52"
"354","S-10","S-10","null","Chevrolet","","21"
"656","S-MAX","S-MAX","null","Ford","","40"
"739","S-MX","S-MX","null","Honda","","49"
"832","S-Type","S-Type","null","Jaguar","","58"
"1028","S-класс","S-класс","null","Mercedes-Benz","","79"
"223","S2","S2","null","Audi","","10"
"740","S2000","S2000","null","Honda","","49"
"224","S3","S3","null","Audi","","10"
"225","S4","S4","null","Audi","","10"
"1710","S40","S40","null","Volvo","","125"
"226","S5","S5","null","Audi","","10"
"227","S6","S6","null","Audi","","10"
"1711","S60","S60","null","Volvo","","125"
"1398","S7","S7","null","Saleen","","102"
"1712","S70","S70","null","Volvo","","125"
"228","S8","S8","null","Audi","","10"
"1713","S80","S80","null","Volvo","","125"
"1714","S90","S90","null","Volvo","","125"
"101","Saab","Saab","null","","","null"
"741","Saber","Saber","null","Honda","","49"
"1046","Sable","Sable","null","Mercury","","80"
"1179","Safari","Safari","null","Nissan","","85"
"671","Safary","Safary","null","GMC","","41"
"693","Safe","Safe","null","Great Wall","","46"
"1350","Safrane","Safrane","null","Renault","","96"
"1518","Sahin","Sahin","null","Tofas","","120"
"694","Sailor","Sailor","null","Great Wall","","46"
"505","Saladin","Saladin","null","Derways","","30"
"102","Saleen","Saleen","null","","","null"
"812","Samand","Samand","null","Iran Khodro","","55"
"2241","Samara","Samara","null","Lada","","2240"
"1465","Sambar","Sambar","null","Subaru","","112"
"103","Samsung","Samsung","null","","","null"
"1489","Samurai","Samurai","null","Suzuki","","113"
"2221","Sandero","Sandero","null","Renault","","96"
"785","Santa Fe","Santa Fe","null","Hyundai","","52"
"786","Santa Fe Classic","Santa Fe Classic","null","Hyundai","","52"
"787","Santamo","Santamo","null","Hyundai","","52"
"1680","Santana","Santana","null","Volkswagen","","124"
"388","Saratoga","Saratoga","null","Chrysler","","22"
"1317","Satria","Satria","null","Proton","","95"
"104","Saturn","Saturn","null","","","null"
"672","Savana","Savana","null","GMC","","41"
"356","Savana","Savana","null","Chevrolet","","21"
"415","Saxo","Saxo","null","Citroen","","23"
"913","SC","SC","null","Lexus","","66"
"1409","SC1","SC1","null","Saturn","","104"
"1410","SC2","SC2","null","Saturn","","104"
"1351","Scenic","Scenic","null","Renault","","96"
"1420","SCEO","SCEO","null","Shuanghuan","","107"
"1614","Scepter","Scepter","null","Toyota","","121"
"1615","Scion","Scion","null","Toyota","","121"
"105","Scion","Scion","null","","","null"
"1681","Scirocco","Scirocco","null","Volkswagen","","124"
"657","Scorpio","Scorpio","null","Ford","","40"
"1007","Scrum","Scrum","null","Mazda","","77"
"601","Scudo","Scudo","null","Fiat","","39"
"100","SEAT","SEAT","null","","","null"
"389","Sebring","Sebring","null","Chrysler","","22"
"602","Sedici","Sedici","null","Fiat","","39"
"872","Sedona","Sedona","null","Kia","","61"
"603","Seicento","Seicento","null","Fiat","","39"
"1235","Senator","Senator","null","Opel","","87"
"1819","Sens","Sens","null","ЗАЗ","","138"
"1008","Sentia","Sentia","null","Mazda","","77"
"1180","Sentra","Sentra","null","Nissan","","85"
"873","Sephia","Sephia","null","Kia","","61"
"1616","Sequoia","Sequoia","null","Toyota","","121"
"1617","Sera","Sera","null","Toyota","","121"
"1519","Serce","Serce","null","Tofas","","120"
"1181","Serena","Serena","null","Nissan","","85"
"929","Seven","Seven","null","Lotus","","69"
"292","Seville","Seville","null","Cadillac","","17"
"525","Shadow","Shadow","null","Dodge","","31"
"1682","Sharan","Sharan","null","Volkswagen","","124"
"106","Shenlong","Shenlong","null","","","null"
"683","Shtorm","Shtorm","null","Geo","","43"
"107","Shuanghuan","Shuanghuan","null","","","null"
"874","Shuma","Shuma","null","Kia","","61"
"742","Shuttle","Shuttle","null","Honda","","49"
"423","Shuttle","Shuttle","null","DADI","","24"
"506","Shuttle","Shuttle","null","Derways","","30"
"1490","Sidekick","Sidekick","null","Suzuki","","113"
"604","Siena","Siena","null","Fiat","","39"
"1618","Sienna","Sienna","null","Toyota","","121"
"1619","Sienta","Sienta","null","Toyota","","121"
"673","Sierra","Sierra","null","GMC","","41"
"658","Sierra","Sierra","null","Ford","","40"
"1099","Sigma","Sigma","null","Mitsubishi","","82"
"1236","Signum","Signum","null","Opel","","87"
"1212","Silhouette","Silhouette","null","Oldsmobile","","86"
"357","Silver","Silver","null","Chevrolet","","21"
"1361","Silver Seraph","Silver Seraph","null","Rolls-Royce","","98"
"1362","Silver Spur","Silver Spur","null","Rolls-Royce","","98"
"358","Silverado","Silverado","null","Chevrolet","","21"
"1182","Silvia","Silvia","null","Nissan","","85"
"700","Simbo","Simbo","null","Hafei","","47"
"695","Sing","Sing","null","Great Wall","","46"
"1237","Sintra","Sintra","null","Opel","","87"
"485","Sirion","Sirion","null","Daihatsu","","27"
"2270","Ski-Doo","Ski-Doo","null","","","null"
"1913","Ski-Doo Scandic WT 550 F ","Ski-Doo Scandic WT 550 F ","null","Bombardier","","2271"
"108","Skoda","Skoda","null","","","null"
"1414","Sky","Sky","null","Saturn","","104"
"280","Skylark","Skylark","null","Buick","","16"
"1183","Skyline","Skyline","null","Nissan","","85"
"1411","SL","SL","null","Saturn","","104"
"1029","SL-класс","SL-класс","null","Mercedes-Benz","","79"
"1412","SL2","SL2","null","Saturn","","104"
"1030","SLK-класс","SLK-класс","null","Mercedes-Benz","","79"
"1031","SLR-класс","SLR-класс","null","Mercedes-Benz","","79"
"159","SLX","SLX","null","Acura","","3"
"1935","SM","SM","null","Hyundai","","52"
"1399","SM3","SM3","null","Samsung","","103"
"1400","SM5","SM5","null","Samsung","","103"
"1401","SM7","SM7","null","Samsung","","103"
"109","Smart","Smart","null","","","null"
"424","Smoothing","Smoothing","null","DADI","","24"
"1620","Soarer","Soarer","null","Toyota","","121"
"696","Sokol","Sokol","null","Great Wall","","46"
"1621","Solara","Solara","null","Toyota","","121"
"2168","Solaris","Solaris","null","Hyundai","","52"
"1491","Solio","Solio","null","Suzuki","","113"
"1294","Solstice","Solstice","null","Pontiac","","93"
"1951","Sonata","Sonata","null","Honda","","49"
"788","Sonata","Sonata","null","Hyundai","","52"
"486","Sonica","Sonica","null","Daihatsu","","27"
"875","Sorento","Sorento","null","Kia","","61"
"2139","Soul","Soul","null","Kia","","61"
"833","Sovereign","Sovereign","null","Jaguar","","58"
"1100","Space Gear","Space Gear","null","Mitsubishi","","82"
"1101","Space Runner","Space Runner","null","Mitsubishi","","82"
"1102","Space Star","Space Star","null","Mitsubishi","","82"
"1103","Space Wagon","Space Wagon","null","Mitsubishi","","82"
"359","Spark","Spark","null","Chevrolet","","21"
"1622","Sparky","Sparky","null","Toyota","","121"
"196","Spartana","Spartana","null","Aro","","7"
"2048","Special","Special","null","Buick","","16"
"876","Spectra","Spectra","null","Kia","","61"
"1238","Speedster","Speedster","null","Opel","","87"
"182","Spider","Spider","null","Alfa Romeo","","5"
"743","Spike","Spike","null","Honda","","49"
"526","Spirit","Spirit","null","Dodge","","31"
"1492","Splash","Splash","null","Suzuki","","113"
"1352","Sport Spyder","Sport Spyder","null","Renault","","96"
"877","Sportage","Sportage","null","Kia","","61"
"1623","Sprinter","Sprinter","null","Toyota","","121"
"1032","Sprinter","Sprinter","null","Mercedes-Benz","","79"
"1624","Sprinter Marino","Sprinter Marino","null","Toyota","","121"
"964","Spyder","Spyder","null","Maserati","","75"
"110","Spyker","Spyker","null","","","null"
"1726","SR-V X3","SR-V X3","null","Xin Kai","","129"
"290","SRX","SRX","null","Cadillac","","17"
"111","SsangYong","SsangYong","null","","","null"
"355","SSR","SSR","null","Chevrolet","","21"
"1184","Stagea","Stagea","null","Nissan","","85"
"1185","Stanza","Stanza","null","Nissan","","85"
"360","Starcraft","Starcraft","null","Chevrolet","","21"
"1625","Starlet","Starlet","null","Toyota","","121"
"456","Statesman","Statesman","null","Daewoo","","26"
"703","Statesman","Statesman","null","Holden","","48"
"527","Stealth","Stealth","null","Dodge","","31"
"789","Stelar","Stelar","null","Hyundai","","52"
"1466","Stella","Stella","null","Subaru","","112"
"744","Stepwgn","Stepwgn","null","Honda","","49"
"88","Steyr-Daimler-Puch","Steyr-Daimler-Puch","null","","","null"
"605","Stilo","Stilo","null","Fiat","","39"
"487","Storia","Storia","null","Daihatsu","","27"
"606","Strada","Strada","null","Fiat","","39"
"390","Stratus","Stratus","null","Chrysler","","22"
"528","Stratus","Stratus","null","Dodge","","31"
"745","Stream","Stream","","Honda","","49"
"1378","Streetwise","Streetwise","null","Rover","","99"
"291","STS","STS","null","Cadillac","","17"
"112","Subaru","Subaru","null","","","null"
"674","Suburban","Suburban","null","GMC","","41"
"361","Suburban","Suburban","null","Chevrolet","","21"
"1626","Succeed","Succeed","null","Toyota","","121"
"534","Summit","Summit","null","Eagle","","34"
"1295","Sunbird","Sunbird","null","Pontiac","","93"
"1279","Sundance","Sundance","null","Plymouth","","92"
"1296","Sunfire","Sunfire","null","Pontiac","","93"
"1186","Sunny","Sunny","null","Nissan","","85"
"457","Super Salon","Super Salon","null","Daewoo","","26"
"295","Super Seven","Super Seven","null","Caterham","","18"
"1432","Superb","Superb","null","Skoda","","108"
"1627","Supra","Supra","null","Toyota","","121"
"297","SUV","SUV","null","ChangFeng","","19"
"692","SUV","SUV","null","Great Wall","","46"
"904","SUV","SUV","null","Landwind","","65"
"1727","SUV X3","SUV X3","null","Xin Kai","","129"
"113","Suzuki","Suzuki","null","","","null"
"1464","SVX","SVX","null","Subaru","","112"
"1413","SW","SW","null","Saturn","","104"
"1493","Swift","Swift","null","Suzuki","","113"
"306","Swift","Swift","null","Chery","","20"
"1488","SX4","SX4","null","Suzuki","","113"
"2119","SX4 Hatchback","SX4 Hatchback","null","Suzuki","","113"
"1353","Symbol","Symbol","null","Renault","","96"
"1503","T350","T350","null","TVR","","114"
"1628","Tacoma","Tacoma","null","Toyota","","121"
"458","Tacuma","Tacuma","null","Daewoo","","26"
"1508","Tagora","Tagora","null","Talbot","","115"
"362","Tahoe","Tahoe","null","Chevrolet","","21"
"115","Talbot","Talbot","null","","","null"
"535","Talon","Talon","null","Eagle","","34"
"1504","Tamora","Tamora","null","TVR","","114"
"488","Tanto","Tanto","null","Daihatsu","","27"
"1683","Taro","Taro","null","Volkswagen","","124"
"543","Tarpan Honker","Tarpan Honker","null","FSR","","37"
"489","Taruna","Taruna","null","Daihatsu","","27"
"116","Tata","Tata","null","","","null"
"117","Tatra","Tatra","null","","","null"
"659","Taunus","Taunus","null","Ford","","40"
"660","Taurus","Taurus","null","Ford","","40"
"1050","Taxi","Taxi","null","Metrocab","","81"
"1416","tC","tC","null","Scion","","105"
"1187","Teana","Teana","null","Nissan","","85"
"661","Tempo","Tempo","null","Ford","","40"
"607","Tempra","Tempra","null","Fiat","","39"
"1520","Tempra","Tempra","null","Tofas","","120"
"1629","Tercel","Tercel","null","Toyota","","121"
"490","Terios","Terios","null","Daihatsu","","27"
"790","Terracan","Terracan","null","Hyundai","","52"
"1188","Terrano","Terrano","null","Nissan","","85"
"281","Terraza","Terraza","null","Buick","","16"
"662","Territory","Territory","null","Ford","","40"
"2246","Tesla","Tesla","null","","","null"
"571","Testarossa","Testarossa","null","Ferrari","","38"
"934","TF","TF","null","MG","","70"
"746","That'S","That'S","null","Honda","","49"
"894","Thema","Thema","null","Lancia","","63"
"895","Thesis","Thesis","null","Lancia","","63"
"663","Thunderbird","Thunderbird","null","Ford","","40"
"118","Tianma","Tianma","null","","","null"
"119","Tianye","Tianye","null","","","null"
"791","Tiburon","Tiburon","null","Hyundai","","52"
"459","Tico","Tico","null","Daewoo","","26"
"2194","Tiger","Tiger","null","ТагАЗ","","2193"
"307","Tiggo","Tiggo","null","Chery","","20"
"1239","Tigra","Tigra","null","Opel","","87"
"1684","Tiguan","Tiguan","null","Volkswagen","","124"
"1189","Tiida","Tiida","null","Nissan","","85"
"1190","Tiida latio","Tiida latio","null","Nissan","","85"
"1191","Tino","Tino","null","Nissan","","85"
"608","Tipo","Tipo","null","Fiat","","39"
"1192","Titan","Titan","null","Nissan","","85"
"160","TL","TL","null","Acura","","3"
"747","Today","Today","null","Honda","","49"
"120","Tofas","Tofas","null","","","null"
"1389","Toledo","Toledo","null","SEAT","","100"
"1047","Topaz","Topaz","null","Mercury","","80"
"1104","Toppo","Toppo","null","Mitsubishi","","82"
"748","Torneo","Torneo","null","Honda","","49"
"1297","Torrent","Torrent","null","Pontiac","","93"
"460","Tosca","Tosca","null","Daewoo","","26"
"1685","Touareg","Touareg","null","Volkswagen","","124"
"1686","Touran","Touran","null","Volkswagen","","124"
"2049","Touran","Touran","null","Volkswagen","","124"
"664","Tourneo Connect","Tourneo Connect","null","Ford","","40"
"1630","Town Ace","Town Ace","null","Toyota","","121"
"1105","Town Box","Town Box","null","Mitsubishi","","82"
"1106","Town Box Wide","Town Box Wide","null","Mitsubishi","","82"
"924","Town Car","Town Car","null","Lincoln","","68"
"391","Town&amp;Country","Town&amp;Country","null","Chrysler","","22"
"2156","Toyoace","Toyoace","null","Toyota","","121"
"121","Toyota","Toyota","null","","","null"
"122","Trabant","Trabant","null","","","null"
"1048","Tracer","Tracer","null","Mercury","","80"
"363","Tracker","Tracker","null","Chevrolet","","21"
"684","Tracker","Tracker","null","Geo","","43"
"1354","Trafic","Trafic","null","Renault","","96"
"364","TrailBlazer","TrailBlazer","null","Chevrolet","","21"
"792","Trajet","Trajet","null","Hyundai","","52"
"1298","Trans AM","Trans AM","null","Pontiac","","93"
"1299","Trans Sport","Trans Sport","null","Pontiac","","93"
"665","Transit","Transit","null","Ford","","40"
"1687","Transporter","Transporter","null","Volkswagen","","124"
"365","TransSport","TransSport","null","Chevrolet","","21"
"1467","Traviq","Traviq","null","Subaru","","112"
"896","Trevi","Trevi","null","Lancia","","63"
"491","Trevis","Trevis","null","Daihatsu","","27"
"1468","Tribeca","Tribeca","null","Subaru","","112"
"1009","Tribute","Tribute","null","Mazda","","77"
"1107","Triton","Triton","null","Mitsubishi","","82"
"826","Trooper","Trooper","null","Isuzu","","56"
"161","TSX","TSX","null","Acura","","3"
"229","TT","TT","null","Audi","","10"
"1893","TT","TT","null","Audi","","10"
"793","Tucson","Tucson","null","Hyundai","","52"
"1631","Tundra","Tundra","null","Toyota","","121"
"260","Turbo RT","Turbo RT","null","Bentley","","13"
"1505","Tuscan","Tuscan","null","TVR","","114"
"794","Tuscani","Tuscani","null","Hyundai","","52"
"114","TVR","TVR","null","","","null"
"1494","Twin","Twin","null","Suzuki","","113"
"1355","Twingo","Twingo","null","Renault","","96"
"675","Typhoon","Typhoon","null","GMC","","41"
"609","Ulysse","Ulysse","null","Fiat","","39"
"610","Uno","Uno","null","Fiat","","39"
"2206","Uno 55","Uno 55","null","Fiat","","39"
"366","Uplander","Uplander","null","Chevrolet","","21"
"2315","UX","UX","","Lexus","","66"
"1033","V-класс","V-класс","null","Mercedes-Benz","","79"
"203","V12 Vanquish","V12 Vanquish","null","Aston Martin","","9"
"1715","V40","V40","null","Volvo","","125"
"1716","V50","V50","null","Volvo","","125"
"1717","V70","V70","null","Volvo","","125"
"230","V8","V8","null","Audi","","10"
"204","V8 Vantage","V8 Vantage","null","Aston Martin","","9"
"1718","V90","V90","null","Volvo","","125"
"749","Vamos","Vamos","null","Honda","","49"
"367","Van","Van","null","Chevrolet","","21"
"676","Vandura","Vandura","null","GMC","","41"
"1034","Vaneo","Vaneo","null","Mercedes-Benz","","79"
"1193","Vanette","Vanette","null","Nissan","","85"
"1035","Vario","Vario","null","Mercedes-Benz","","79"
"1240","Vectra","Vectra","null","Opel","","87"
"368","Vectra","Vectra","null","Chevrolet","","21"
"827","Vehi Cross","Vehi Cross","null","Isuzu","","56"
"1356","Vel Satis","Vel Satis","null","Renault","","96"
"2255","Venga","Venga","null","Kia","","61"
"1688","Vento","Vento","null","Volkswagen","","124"
"369","Venture","Venture","null","Chevrolet","","21"
"123","Venturi","Venturi","null","","","null"
"2291","Venza","Venza","","Toyota","","121"
"795","Veracruz","Veracruz","null","Hyundai","","52"
"1010","Verisa","Verisa","null","Mazda","","77"
"796","Verna","Verna","null","Hyundai","","52"
"1495","Verona","Verona","null","Suzuki","","113"
"1632","Verossa","Verossa","null","Toyota","","121"
"1194","Versa","Versa","null","Nissan","","85"
"2317","Vesta","Vesta","null","Lada","","2240"
"266","Veyron 16.4","Veyron 16.4","null","Bugatti","","15"
"1036","Viano","Viano","null","Mercedes-Benz","","79"
"1300","Vibe","Vibe","null","Pontiac","","93"
"750","Vigor","Vigor","null","Honda","","49"
"1049","Villager","Villager","null","Mercury","","80"
"1633","Vios","Vios","null","Toyota","","121"
"392","Viper","Viper","null","Chrysler","","22"
"529","Viper","Viper","null","Dodge","","31"
"416","Visa","Visa","null","Citroen","","23"
"393","Vision","Vision","null","Chrysler","","22"
"536","Vision","Vision","null","Eagle","","34"
"680","Vision","Vision","null","Geely","","42"
"1634","Vista","Vista","null","Toyota","","121"
"878","Visto","Visto","null","Kia","","61"
"1241","Vita","Vita","null","Opel","","87"
"541","Vita","Vita","null","FAW","","35"
"1496","Vitara","Vitara","null","Suzuki","","113"
"1037","Vito","Vito","null","Mercedes-Benz","","79"
"1635","Vitz","Vitz","null","Toyota","","121"
"370","Viva","Viva","null","Chevrolet","","21"
"1242","Vivaro","Vivaro","null","Opel","","87"
"1469","Vivio","Vivio","null","Subaru","","112"
"1806","Volga Siber","Volga Siber","null","ГАЗ","","134"
"124","Volkswagen","Volkswagen","null","","","null"
"1636","Voltz","Voltz","null","Toyota","","121"
"125","Volvo","Volvo","null","","","null"
"126","Vortex","Vortex","null","","","null"
"1637","Voxy","Voxy","null","Toyota","","121"
"1280","Voyager","Voyager","null","Plymouth","","92"
"394","Voyager","Voyager","null","Chrysler","","22"
"1906","VR (VRSCA)","VR (VRSCA)","null","Harley-Davidson","","1884"
"1415","VUE","VUE","null","Saturn","","104"
"1038","W123","W123","null","Mercedes-Benz","","79"
"1039","W124","W124","null","Mercedes-Benz","","79"
"2204","W140","W140","null","Mercedes-Benz","","79"
"1497","Wagon R+","Wagon R+","null","Suzuki","","113"
"127","Wartburg","Wartburg","null","","","null"
"1301","Wave","Wave","null","Pontiac","","93"
"128","Wiesmann","Wiesmann","null","","","null"
"1638","Will Cypha","Will Cypha","null","Toyota","","121"
"1639","Will VS","Will VS","null","Toyota","","121"
"2210","Willys","Willys","null","","","null"
"308","Windcloud","Windcloud","null","Chery","","20"
"1640","Windom","Windom","null","Toyota","","121"
"666","Windstar","Windstar","null","Ford","","40"
"461","Windstorm","Windstorm","null","Daewoo","","26"
"697","Wingle","Wingle","null","Great Wall","","46"
"1195","Wingroad","Wingroad","null","Nissan","","85"
"1641","Wish","Wish","null","Toyota","","121"
"828","Wizard","Wizard","null","Isuzu","","56"
"848","Wrangler","Wrangler","null","Jeep","","59"
"611","X 1/9","X 1/9","null","Fiat","","39"
"1498","X-90","X-90","null","Suzuki","","113"
"1196","X-Trail","X-Trail","null","Nissan","","85"
"879","X-Trek","X-Trek","null","Kia","","61"
"834","X-Type","X-Type","null","Jaguar","","58"
"2073","X1","X1","null","BMW","","11"
"240","X3","X3","null","BMW","","11"
"2252","X3 xdrive20d","X3 xdrive20d","null","BMW","","11"
"241","X5","X5","null","BMW","","11"
"242","X6","X6","null","BMW","","11"
"905","X6","X6","null","Landwind","","65"
"2290","X60","X60","","Lifan","","67"
"1417","xA","xA","null","Scion","","105"
"418","Xantia","Xantia","null","Citroen","","23"
"1418","xB","xB","null","Scion","","105"
"1719","XC60","XC60","null","Volvo","","125"
"1720","XC70","XC70","null","Volvo","","125"
"1721","XC90","XC90","null","Volvo","","125"
"1419","xD","xD","null","Scion","","105"
"1011","Xedos 6","Xedos 6","null","Mazda","","77"
"1012","Xedos 9","Xedos 9","null","Mazda","","77"
"492","Xenia","Xenia","null","Daihatsu","","27"
"835","XF","XF","null","Jaguar","","58"
"797","XG","XG","null","Hyundai","","52"
"129","Xin Kai","Xin Kai","null","","","null"
"836","XJ","XJ","null","Jaguar","","58"
"496","XJ","XJ","null","Daimler","","28"
"837","XJ220","XJ220","null","Jaguar","","58"
"838","XJR","XJR","null","Jaguar","","58"
"839","XJS","XJS","null","Jaguar","","58"
"840","XK","XK","null","Jaguar","","58"
"1390","XL","XL","null","SEAT","","100"
"1499","XL-7","XL-7","null","Suzuki","","113"
"293","XLR","XLR","null","Cadillac","","17"
"417","XM","XM","null","Citroen","","23"
"2272","XPDI","XPDI","null","Bombardier","","2271"
"935","XPower SV","XPower SV","null","MG","","70"
"419","Xsara","Xsara","null","Citroen","","23"
"420","Xsara Picasso","Xsara Picasso","null","Citroen","","23"
"1197","Xterra","Xterra","null","Nissan","","85"
"2287","XV","XV","","Subaru","","112"
"2020","Yamaha","Yamaha","null","","","null"
"1642","Yaris","Yaris","null","Toyota","","121"
"1643","Yaris Verso","Yaris Verso","null","Toyota","","121"
"2280","Yeti","Yeti","","Skoda","","108"
"2269","YETI Pro V-800","YETI Pro V-800","null","LYNX","","1911"
"897","Ypsilon","Ypsilon","null","Lancia","","63"
"493","YRV","YRV","null","Daihatsu","","27"
"677","Yukon","Yukon","null","GMC","","41"
"130","Yzk","Yzk","null","","","null"
"751","Z","Z","null","Honda","","49"
"243","Z1","Z1","null","BMW","","11"
"244","Z3","Z3","null","BMW","","11"
"245","Z4","Z4","null","BMW","","11"
"246","Z4 M","Z4 M","null","BMW","","11"
"247","Z8","Z8","null","BMW","","11"
"371","Zafira","Zafira","null","Chevrolet","","21"
"1243","Zafira","Zafira","null","Opel","","87"
"494","Zebra","Zebra","null","Daihatsu","","27"
"953","Zen","Zen","null","Maruti","","74"
"752","Zest","Zest","null","Honda","","49"
"898","Zeta","Zeta","null","Lancia","","63"
"1245","Zonda","Zonda","null","Pagani","","89"
"936","ZR","ZR","null","MG","","70"
"937","ZS","ZS","null","MG","","70"
"938","ZT","ZT","null","MG","","70"
"131","ZX","ZX","null","","","null"
"421","ZX","ZX","null","Citroen","","23"
"1766","Автокам-2160","Автокам-2160","null","Велта","","133"
"1898","АМУР","АМУР","null","","","null"
"132","ВАЗ","ВАЗ","null","","","null"
"133","Велта","Велта","null","","","null"
"134","ГАЗ","ГАЗ","null","","","null"
"1907","Газель","Газель","null","ГАЗ","","134"
"135","ЕРАЗ","ЕРАЗ","null","","","null"
"138","ЗАЗ","ЗАЗ","null","","","null"
"139","ЗИЛ","ЗИЛ","null","","","null"
"140","ИЖ","ИЖ","null","","","null"
"137","КАМАЗ","КАМАЗ","null","","","null"
"1859","Князь Владимир","Князь Владимир","null","Москвич","","142"
"141","ЛУАЗ","ЛУАЗ","null","","","null"
"2288","М-21","М-21","","ГАЗ","","134"
"1894","МАЗ","МАЗ","null","","","null"
"142","Москвич","Москвич","null","","","null"
"1896","ПАЗ","ПАЗ","null","","","null"
"1860","Святогор","Святогор","null","Москвич","","142"
"136","СеАЗ","СеАЗ","null","","","null"
"1820","Таврия","Таврия","null","ЗАЗ","","138"
"2193","ТагАЗ","ТагАЗ","null","","","null"
"143","УАЗ","УАЗ","null","","","null"
"1861","Юрий Долгорукий","Юрий Долгорукий","null","Москвич","","142"
